{
"type": "FeatureCollection",
"name": "PBOT2015_PUNTOS_EXPANSION",
"crs": { "type": "name", "properties": { "name": "urn:ogc:def:crs:OGC:1.3:CRS84" } },
"features": [
{ "type": "Feature", "properties": { "OBJECTID": 1, "Id": 0, "area_m2": 103294.36204000001, "Tipo": "Expansión- Residencial Zona 1", "ORIG_FID": 1, "POINT_X": 880210.9779000001, "POINT_Y": 701915.9476, "CRS_ORIGINAL": "EPSG:21897", "FUENTE_PBOT": "PBOT 2015 — Cartografía de formulación", "CAPA_SIGOber": "PBOT2015_PUNTOS_EXPANSION" }, "geometry": { "type": "Point", "coordinates": [ -75.154168935261353, 1.900265896824046 ] } },
{ "type": "Feature", "properties": { "OBJECTID": 2, "Id": 0, "area_m2": 103294.36204000001, "Tipo": "Expansión- Residencial Zona 1", "ORIG_FID": 1, "POINT_X": 880214.7549000001, "POINT_Y": 701882.586, "CRS_ORIGINAL": "EPSG:21897", "FUENTE_PBOT": "PBOT 2015 — Cartografía de formulación", "CAPA_SIGOber": "PBOT2015_PUNTOS_EXPANSION" }, "geometry": { "type": "Point", "coordinates": [ -75.154134800648393, 1.89996426155046 ] } },
{ "type": "Feature", "properties": { "OBJECTID": 3, "Id": 0, "area_m2": 103294.36204000001, "Tipo": "Expansión- Residencial Zona 1", "ORIG_FID": 1, "POINT_X": 879925.5417, "POINT_Y": 701860.3116, "CRS_ORIGINAL": "EPSG:21897", "FUENTE_PBOT": "PBOT 2015 — Cartografía de formulación", "CAPA_SIGOber": "PBOT2015_PUNTOS_EXPANSION" }, "geometry": { "type": "Point", "coordinates": [ -75.156733692118578, 1.899761174543145 ] } },
{ "type": "Feature", "properties": { "OBJECTID": 4, "Id": 0, "area_m2": 103294.36204000001, "Tipo": "Expansión- Residencial Zona 1", "ORIG_FID": 1, "POINT_X": 879649.4859, "POINT_Y": 701908.8606, "CRS_ORIGINAL": "EPSG:21897", "FUENTE_PBOT": "PBOT 2015 — Cartografía de formulación", "CAPA_SIGOber": "PBOT2015_PUNTOS_EXPANSION" }, "geometry": { "type": "Point", "coordinates": [ -75.159214752185818, 1.900198548212368 ] } },
{ "type": "Feature", "properties": { "OBJECTID": 5, "Id": 0, "area_m2": 103294.36204000001, "Tipo": "Expansión- Residencial Zona 1", "ORIG_FID": 1, "POINT_X": 879747.274, "POINT_Y": 702054.508, "CRS_ORIGINAL": "EPSG:21897", "FUENTE_PBOT": "PBOT 2015 — Cartografía de formulación", "CAPA_SIGOber": "PBOT2015_PUNTOS_EXPANSION" }, "geometry": { "type": "Point", "coordinates": [ -75.158336822227142, 1.901516067364095 ] } },
{ "type": "Feature", "properties": { "OBJECTID": 6, "Id": 0, "area_m2": 103294.36204000001, "Tipo": "Expansión- Residencial Zona 1", "ORIG_FID": 1, "POINT_X": 879764.9235, "POINT_Y": 702059.683, "CRS_ORIGINAL": "EPSG:21897", "FUENTE_PBOT": "PBOT 2015 — Cartografía de formulación", "CAPA_SIGOber": "PBOT2015_PUNTOS_EXPANSION" }, "geometry": { "type": "Point", "coordinates": [ -75.158178244636318, 1.901562962826998 ] } },
{ "type": "Feature", "properties": { "OBJECTID": 7, "Id": 0, "area_m2": 103294.36204000001, "Tipo": "Expansión- Residencial Zona 1", "ORIG_FID": 1, "POINT_X": 879894.4556, "POINT_Y": 702088.0855, "CRS_ORIGINAL": "EPSG:21897", "FUENTE_PBOT": "PBOT 2015 — Cartografía de formulación", "CAPA_SIGOber": "PBOT2015_PUNTOS_EXPANSION" }, "geometry": { "type": "Point", "coordinates": [ -75.157014366005086, 1.901820534313234 ] } },
{ "type": "Feature", "properties": { "OBJECTID": 8, "Id": 0, "area_m2": 103294.36204000001, "Tipo": "Expansión- Residencial Zona 1", "ORIG_FID": 1, "POINT_X": 879906.4524, "POINT_Y": 702087.1773, "CRS_ORIGINAL": "EPSG:21897", "FUENTE_PBOT": "PBOT 2015 — Cartografía de formulación", "CAPA_SIGOber": "PBOT2015_PUNTOS_EXPANSION" }, "geometry": { "type": "Point", "coordinates": [ -75.156906551199796, 1.901812392222899 ] } },
{ "type": "Feature", "properties": { "OBJECTID": 9, "Id": 0, "area_m2": 103294.36204000001, "Tipo": "Expansión- Residencial Zona 1", "ORIG_FID": 1, "POINT_X": 880053.2936, "POINT_Y": 702112.4225, "CRS_ORIGINAL": "EPSG:21897", "FUENTE_PBOT": "PBOT 2015 — Cartografía de formulación", "CAPA_SIGOber": "PBOT2015_PUNTOS_EXPANSION" }, "geometry": { "type": "Point", "coordinates": [ -75.15558710472817, 1.902041515338693 ] } },
{ "type": "Feature", "properties": { "OBJECTID": 10, "Id": 0, "area_m2": 103294.36204000001, "Tipo": "Expansión- Residencial Zona 1", "ORIG_FID": 1, "POINT_X": 880104.0103, "POINT_Y": 702121.8208, "CRS_ORIGINAL": "EPSG:21897", "FUENTE_PBOT": "PBOT 2015 — Cartografía de formulación", "CAPA_SIGOber": "PBOT2015_PUNTOS_EXPANSION" }, "geometry": { "type": "Point", "coordinates": [ -75.155131391853359, 1.902126790263831 ] } },
{ "type": "Feature", "properties": { "OBJECTID": 11, "Id": 0, "area_m2": 103294.36204000001, "Tipo": "Expansión- Residencial Zona 1", "ORIG_FID": 1, "POINT_X": 880117.6014, "POINT_Y": 702041.2959, "CRS_ORIGINAL": "EPSG:21897", "FUENTE_PBOT": "PBOT 2015 — Cartografía de formulación", "CAPA_SIGOber": "PBOT2015_PUNTOS_EXPANSION" }, "geometry": { "type": "Point", "coordinates": [ -75.155008789581643, 1.901398759495167 ] } },
{ "type": "Feature", "properties": { "OBJECTID": 12, "Id": 0, "area_m2": 103294.36204000001, "Tipo": "Expansión- Residencial Zona 1", "ORIG_FID": 1, "POINT_X": 880191.7235, "POINT_Y": 702050.818, "CRS_ORIGINAL": "EPSG:21897", "FUENTE_PBOT": "PBOT 2015 — Cartografía de formulación", "CAPA_SIGOber": "PBOT2015_PUNTOS_EXPANSION" }, "geometry": { "type": "Point", "coordinates": [ -75.154342744102792, 1.901485289614815 ] } },
{ "type": "Feature", "properties": { "OBJECTID": 13, "Id": 0, "area_m2": 103294.36204000001, "Tipo": "Expansión- Residencial Zona 1", "ORIG_FID": 1, "POINT_X": 880210.9779000001, "POINT_Y": 701915.9476, "CRS_ORIGINAL": "EPSG:21897", "FUENTE_PBOT": "PBOT 2015 — Cartografía de formulación", "CAPA_SIGOber": "PBOT2015_PUNTOS_EXPANSION" }, "geometry": { "type": "Point", "coordinates": [ -75.154168935261353, 1.900265896824046 ] } },
{ "type": "Feature", "properties": { "OBJECTID": 14, "Id": 0, "area_m2": 8482.8770455400008, "Tipo": "Expansión", "ORIG_FID": 2, "POINT_X": 873295.7945, "POINT_Y": 693506.1258, "CRS_ORIGINAL": "EPSG:21897", "FUENTE_PBOT": "PBOT 2015 — Cartografía de formulación", "CAPA_SIGOber": "PBOT2015_PUNTOS_EXPANSION" }, "geometry": { "type": "Point", "coordinates": [ -75.216261506819805, 1.82418417901802 ] } },
{ "type": "Feature", "properties": { "OBJECTID": 15, "Id": 0, "area_m2": 8482.8770455400008, "Tipo": "Expansión", "ORIG_FID": 2, "POINT_X": 873415.0565, "POINT_Y": 693521.3912, "CRS_ORIGINAL": "EPSG:21897", "FUENTE_PBOT": "PBOT 2015 — Cartografía de formulación", "CAPA_SIGOber": "PBOT2015_PUNTOS_EXPANSION" }, "geometry": { "type": "Point", "coordinates": [ -75.215189913537841, 1.824322909190817 ] } },
{ "type": "Feature", "properties": { "OBJECTID": 16, "Id": 0, "area_m2": 8482.8770455400008, "Tipo": "Expansión", "ORIG_FID": 2, "POINT_X": 873416.7706, "POINT_Y": 693442.4809, "CRS_ORIGINAL": "EPSG:21897", "FUENTE_PBOT": "PBOT 2015 — Cartografía de formulación", "CAPA_SIGOber": "PBOT2015_PUNTOS_EXPANSION" }, "geometry": { "type": "Point", "coordinates": [ -75.215174049086201, 1.823609422726965 ] } },
{ "type": "Feature", "properties": { "OBJECTID": 17, "Id": 0, "area_m2": 8482.8770455400008, "Tipo": "Expansión", "ORIG_FID": 2, "POINT_X": 873301.4634, "POINT_Y": 693440.9115, "CRS_ORIGINAL": "EPSG:21897", "FUENTE_PBOT": "PBOT 2015 — Cartografía de formulación", "CAPA_SIGOber": "PBOT2015_PUNTOS_EXPANSION" }, "geometry": { "type": "Point", "coordinates": [ -75.216210184538923, 1.823594553509878 ] } },
{ "type": "Feature", "properties": { "OBJECTID": 18, "Id": 0, "area_m2": 8482.8770455400008, "Tipo": "Expansión", "ORIG_FID": 2, "POINT_X": 873295.7945, "POINT_Y": 693506.1258, "CRS_ORIGINAL": "EPSG:21897", "FUENTE_PBOT": "PBOT 2015 — Cartografía de formulación", "CAPA_SIGOber": "PBOT2015_PUNTOS_EXPANSION" }, "geometry": { "type": "Point", "coordinates": [ -75.216261506819805, 1.82418417901802 ] } },
{ "type": "Feature", "properties": { "OBJECTID": 19, "Id": 0, "area_m2": 9112.8061695699998, "Tipo": "Expansión", "ORIG_FID": 3, "POINT_X": 897844.2707, "POINT_Y": 669583.0968000001, "CRS_ORIGINAL": "EPSG:21897", "FUENTE_PBOT": "PBOT 2015 — Cartografía de formulación", "CAPA_SIGOber": "PBOT2015_PUNTOS_EXPANSION" }, "geometry": { "type": "Point", "coordinates": [ -74.995554923345637, 1.607991098650605 ] } },
{ "type": "Feature", "properties": { "OBJECTID": 20, "Id": 0, "area_m2": 9112.8061695699998, "Tipo": "Expansión", "ORIG_FID": 3, "POINT_X": 897892.5863, "POINT_Y": 669541.2412, "CRS_ORIGINAL": "EPSG:21897", "FUENTE_PBOT": "PBOT 2015 — Cartografía de formulación", "CAPA_SIGOber": "PBOT2015_PUNTOS_EXPANSION" }, "geometry": { "type": "Point", "coordinates": [ -74.995120604136275, 1.607612823280311 ] } },
{ "type": "Feature", "properties": { "OBJECTID": 21, "Id": 0, "area_m2": 9112.8061695699998, "Tipo": "Expansión", "ORIG_FID": 3, "POINT_X": 897800.7645, "POINT_Y": 669435.6026, "CRS_ORIGINAL": "EPSG:21897", "FUENTE_PBOT": "PBOT 2015 — Cartografía de formulación", "CAPA_SIGOber": "PBOT2015_PUNTOS_EXPANSION" }, "geometry": { "type": "Point", "coordinates": [ -74.99594523038671, 1.606657195783595 ] } },
{ "type": "Feature", "properties": { "OBJECTID": 22, "Id": 0, "area_m2": 9112.8061695699998, "Tipo": "Expansión", "ORIG_FID": 3, "POINT_X": 897750.5099, "POINT_Y": 669478.4959, "CRS_ORIGINAL": "EPSG:21897", "FUENTE_PBOT": "PBOT 2015 — Cartografía de formulación", "CAPA_SIGOber": "PBOT2015_PUNTOS_EXPANSION" }, "geometry": { "type": "Point", "coordinates": [ -74.996396976717364, 1.607044846210856 ] } },
{ "type": "Feature", "properties": { "OBJECTID": 23, "Id": 0, "area_m2": 9112.8061695699998, "Tipo": "Expansión", "ORIG_FID": 3, "POINT_X": 897844.2707, "POINT_Y": 669583.0968000001, "CRS_ORIGINAL": "EPSG:21897", "FUENTE_PBOT": "PBOT 2015 — Cartografía de formulación", "CAPA_SIGOber": "PBOT2015_PUNTOS_EXPANSION" }, "geometry": { "type": "Point", "coordinates": [ -74.995554923345637, 1.607991098650605 ] } },
{ "type": "Feature", "properties": { "OBJECTID": 24, "Id": 0, "area_m2": 93547.372864300007, "Tipo": "Expansión - - Residencial Zona 2", "ORIG_FID": 4, "POINT_X": 879220.9396, "POINT_Y": 702728.3428, "CRS_ORIGINAL": "EPSG:21897", "FUENTE_PBOT": "PBOT 2015 — Cartografía de formulación", "CAPA_SIGOber": "PBOT2015_PUNTOS_EXPANSION" }, "geometry": { "type": "Point", "coordinates": [ -75.163070661374334, 1.907605819767878 ] } },
{ "type": "Feature", "properties": { "OBJECTID": 25, "Id": 0, "area_m2": 93547.372864300007, "Tipo": "Expansión - - Residencial Zona 2", "ORIG_FID": 4, "POINT_X": 879219.7208, "POINT_Y": 702721.1565, "CRS_ORIGINAL": "EPSG:21897", "FUENTE_PBOT": "PBOT 2015 — Cartografía de formulación", "CAPA_SIGOber": "PBOT2015_PUNTOS_EXPANSION" }, "geometry": { "type": "Point", "coordinates": [ -75.163081572204632, 1.907540833933057 ] } },
{ "type": "Feature", "properties": { "OBJECTID": 26, "Id": 0, "area_m2": 93547.372864300007, "Tipo": "Expansión - - Residencial Zona 2", "ORIG_FID": 4, "POINT_X": 879218.2583, "POINT_Y": 702714.0567, "CRS_ORIGINAL": "EPSG:21897", "FUENTE_PBOT": "PBOT 2015 — Cartografía de formulación", "CAPA_SIGOber": "PBOT2015_PUNTOS_EXPANSION" }, "geometry": { "type": "Point", "coordinates": [ -75.163094673559442, 1.907476628801701 ] } },
{ "type": "Feature", "properties": { "OBJECTID": 27, "Id": 0, "area_m2": 93547.372864300007, "Tipo": "Expansión - - Residencial Zona 2", "ORIG_FID": 4, "POINT_X": 879213.76, "POINT_Y": 702686.5084, "CRS_ORIGINAL": "EPSG:21897", "FUENTE_PBOT": "PBOT 2015 — Cartografía de formulación", "CAPA_SIGOber": "PBOT2015_PUNTOS_EXPANSION" }, "geometry": { "type": "Point", "coordinates": [ -75.16313493685054, 1.907227510076102 ] } },
{ "type": "Feature", "properties": { "OBJECTID": 28, "Id": 0, "area_m2": 93547.372864300007, "Tipo": "Expansión - - Residencial Zona 2", "ORIG_FID": 4, "POINT_X": 879213.7602, "POINT_Y": 702678.8246000001, "CRS_ORIGINAL": "EPSG:21897", "FUENTE_PBOT": "PBOT 2015 — Cartografía de formulación", "CAPA_SIGOber": "PBOT2015_PUNTOS_EXPANSION" }, "geometry": { "type": "Point", "coordinates": [ -75.163134890193874, 1.907158032998606 ] } },
{ "type": "Feature", "properties": { "OBJECTID": 29, "Id": 0, "area_m2": 93547.372864300007, "Tipo": "Expansión - - Residencial Zona 2", "ORIG_FID": 4, "POINT_X": 879202.5245000001, "POINT_Y": 702641.0992000001, "CRS_ORIGINAL": "EPSG:21897", "FUENTE_PBOT": "PBOT 2015 — Cartografía de formulación", "CAPA_SIGOber": "PBOT2015_PUNTOS_EXPANSION" }, "geometry": { "type": "Point", "coordinates": [ -75.163235639953939, 1.906816853159149 ] } },
{ "type": "Feature", "properties": { "OBJECTID": 30, "Id": 0, "area_m2": 93547.372864300007, "Tipo": "Expansión - - Residencial Zona 2", "ORIG_FID": 4, "POINT_X": 879212.3236, "POINT_Y": 702612.0538, "CRS_ORIGINAL": "EPSG:21897", "FUENTE_PBOT": "PBOT 2015 — Cartografía de formulación", "CAPA_SIGOber": "PBOT2015_PUNTOS_EXPANSION" }, "geometry": { "type": "Point", "coordinates": [ -75.163147410492371, 1.906554281604213 ] } },
{ "type": "Feature", "properties": { "OBJECTID": 31, "Id": 0, "area_m2": 93547.372864300007, "Tipo": "Expansión - - Residencial Zona 2", "ORIG_FID": 4, "POINT_X": 879196.5718, "POINT_Y": 702607.0282, "CRS_ORIGINAL": "EPSG:21897", "FUENTE_PBOT": "PBOT 2015 — Cartografía de formulación", "CAPA_SIGOber": "PBOT2015_PUNTOS_EXPANSION" }, "geometry": { "type": "Point", "coordinates": [ -75.163288935199176, 1.906508747521272 ] } },
{ "type": "Feature", "properties": { "OBJECTID": 32, "Id": 0, "area_m2": 93547.372864300007, "Tipo": "Expansión - - Residencial Zona 2", "ORIG_FID": 4, "POINT_X": 879192.7109, "POINT_Y": 702576.567, "CRS_ORIGINAL": "EPSG:21897", "FUENTE_PBOT": "PBOT 2015 — Cartografía de formulación", "CAPA_SIGOber": "PBOT2015_PUNTOS_EXPANSION" }, "geometry": { "type": "Point", "coordinates": [ -75.163323453502159, 1.906233294059798 ] } },
{ "type": "Feature", "properties": { "OBJECTID": 33, "Id": 0, "area_m2": 93547.372864300007, "Tipo": "Expansión - - Residencial Zona 2", "ORIG_FID": 4, "POINT_X": 879190.1785, "POINT_Y": 702564.2632, "CRS_ORIGINAL": "EPSG:21897", "FUENTE_PBOT": "PBOT 2015 — Cartografía de formulación", "CAPA_SIGOber": "PBOT2015_PUNTOS_EXPANSION" }, "geometry": { "type": "Point", "coordinates": [ -75.163346139180447, 1.906122027980868 ] } },
{ "type": "Feature", "properties": { "OBJECTID": 34, "Id": 0, "area_m2": 93547.372864300007, "Tipo": "Expansión - - Residencial Zona 2", "ORIG_FID": 4, "POINT_X": 879185.9782, "POINT_Y": 702542.5727, "CRS_ORIGINAL": "EPSG:21897", "FUENTE_PBOT": "PBOT 2015 — Cartografía de formulación", "CAPA_SIGOber": "PBOT2015_PUNTOS_EXPANSION" }, "geometry": { "type": "Point", "coordinates": [ -75.16338375871041, 1.905925877379545 ] } },
{ "type": "Feature", "properties": { "OBJECTID": 35, "Id": 0, "area_m2": 93547.372864300007, "Tipo": "Expansión - - Residencial Zona 2", "ORIG_FID": 4, "POINT_X": 879184.485, "POINT_Y": 702530.1865, "CRS_ORIGINAL": "EPSG:21897", "FUENTE_PBOT": "PBOT 2015 — Cartografía de formulación", "CAPA_SIGOber": "PBOT2015_PUNTOS_EXPANSION" }, "geometry": { "type": "Point", "coordinates": [ -75.163397105112153, 1.905813872343154 ] } },
{ "type": "Feature", "properties": { "OBJECTID": 36, "Id": 0, "area_m2": 93547.372864300007, "Tipo": "Expansión - - Residencial Zona 2", "ORIG_FID": 4, "POINT_X": 879180.0919, "POINT_Y": 702506.7793000001, "CRS_ORIGINAL": "EPSG:21897", "FUENTE_PBOT": "PBOT 2015 — Cartografía de formulación", "CAPA_SIGOber": "PBOT2015_PUNTOS_EXPANSION" }, "geometry": { "type": "Point", "coordinates": [ -75.163436447234062, 1.905602198179633 ] } },
{ "type": "Feature", "properties": { "OBJECTID": 37, "Id": 0, "area_m2": 93547.372864300007, "Tipo": "Expansión - - Residencial Zona 2", "ORIG_FID": 4, "POINT_X": 879178.1962, "POINT_Y": 702495.4251, "CRS_ORIGINAL": "EPSG:21897", "FUENTE_PBOT": "PBOT 2015 — Cartografía de formulación", "CAPA_SIGOber": "PBOT2015_PUNTOS_EXPANSION" }, "geometry": { "type": "Point", "coordinates": [ -75.163453416739387, 1.905499522147405 ] } },
{ "type": "Feature", "properties": { "OBJECTID": 38, "Id": 0, "area_m2": 93547.372864300007, "Tipo": "Expansión - - Residencial Zona 2", "ORIG_FID": 4, "POINT_X": 879173.9551, "POINT_Y": 702469.5596, "CRS_ORIGINAL": "EPSG:21897", "FUENTE_PBOT": "PBOT 2015 — Cartografía de formulación", "CAPA_SIGOber": "PBOT2015_PUNTOS_EXPANSION" }, "geometry": { "type": "Point", "coordinates": [ -75.163491378574321, 1.905265620884865 ] } },
{ "type": "Feature", "properties": { "OBJECTID": 39, "Id": 0, "area_m2": 93547.372864300007, "Tipo": "Expansión - - Residencial Zona 2", "ORIG_FID": 4, "POINT_X": 879172.3427, "POINT_Y": 702459.7516, "CRS_ORIGINAL": "EPSG:21897", "FUENTE_PBOT": "PBOT 2015 — Cartografía de formulación", "CAPA_SIGOber": "PBOT2015_PUNTOS_EXPANSION" }, "geometry": { "type": "Point", "coordinates": [ -75.163505811222834, 1.905176927289474 ] } },
{ "type": "Feature", "properties": { "OBJECTID": 40, "Id": 0, "area_m2": 93547.372864300007, "Tipo": "Expansión - - Residencial Zona 2", "ORIG_FID": 4, "POINT_X": 878875.6076, "POINT_Y": 702460.2734, "CRS_ORIGINAL": "EPSG:21897", "FUENTE_PBOT": "PBOT 2015 — Cartografía de formulación", "CAPA_SIGOber": "PBOT2015_PUNTOS_EXPANSION" }, "geometry": { "type": "Point", "coordinates": [ -75.166172429928039, 1.90517990147387 ] } },
{ "type": "Feature", "properties": { "OBJECTID": 41, "Id": 0, "area_m2": 93547.372864300007, "Tipo": "Expansión - - Residencial Zona 2", "ORIG_FID": 4, "POINT_X": 878900.2139, "POINT_Y": 702779.3616, "CRS_ORIGINAL": "EPSG:21897", "FUENTE_PBOT": "PBOT 2015 — Cartografía de formulación", "CAPA_SIGOber": "PBOT2015_PUNTOS_EXPANSION" }, "geometry": { "type": "Point", "coordinates": [ -75.165953172074282, 1.908065245659188 ] } },
{ "type": "Feature", "properties": { "OBJECTID": 42, "Id": 0, "area_m2": 93547.372864300007, "Tipo": "Expansión - - Residencial Zona 2", "ORIG_FID": 4, "POINT_X": 878971.6516, "POINT_Y": 702782.9334, "CRS_ORIGINAL": "EPSG:21897", "FUENTE_PBOT": "PBOT 2015 — Cartografía de formulación", "CAPA_SIGOber": "PBOT2015_PUNTOS_EXPANSION" }, "geometry": { "type": "Point", "coordinates": [ -75.165311215818676, 1.908097962687122 ] } },
{ "type": "Feature", "properties": { "OBJECTID": 43, "Id": 0, "area_m2": 93547.372864300007, "Tipo": "Expansión - - Residencial Zona 2", "ORIG_FID": 4, "POINT_X": 879124.0519, "POINT_Y": 702745.2302, "CRS_ORIGINAL": "EPSG:21897", "FUENTE_PBOT": "PBOT 2015 — Cartografía de formulación", "CAPA_SIGOber": "PBOT2015_PUNTOS_EXPANSION" }, "geometry": { "type": "Point", "coordinates": [ -75.163941444839921, 1.907757946501746 ] } },
{ "type": "Feature", "properties": { "OBJECTID": 44, "Id": 0, "area_m2": 93547.372864300007, "Tipo": "Expansión - - Residencial Zona 2", "ORIG_FID": 4, "POINT_X": 879220.9396, "POINT_Y": 702728.3428, "CRS_ORIGINAL": "EPSG:21897", "FUENTE_PBOT": "PBOT 2015 — Cartografía de formulación", "CAPA_SIGOber": "PBOT2015_PUNTOS_EXPANSION" }, "geometry": { "type": "Point", "coordinates": [ -75.163070661374334, 1.907605819767878 ] } },
{ "type": "Feature", "properties": { "OBJECTID": 45, "Id": 0, "area_m2": 7939.9366600800004, "Tipo": "Expansión- Industrial", "ORIG_FID": 5, "POINT_X": 880719.7455, "POINT_Y": 701705.7813, "CRS_ORIGINAL": "EPSG:21897", "FUENTE_PBOT": "PBOT 2015 — Cartografía de formulación", "CAPA_SIGOber": "PBOT2015_PUNTOS_EXPANSION" }, "geometry": { "type": "Point", "coordinates": [ -75.149595671480071, 1.898368508167283 ] } },
{ "type": "Feature", "properties": { "OBJECTID": 46, "Id": 0, "area_m2": 7939.9366600800004, "Tipo": "Expansión- Industrial", "ORIG_FID": 5, "POINT_X": 880626.5388, "POINT_Y": 701706.116, "CRS_ORIGINAL": "EPSG:21897", "FUENTE_PBOT": "PBOT 2015 — Cartografía de formulación", "CAPA_SIGOber": "PBOT2015_PUNTOS_EXPANSION" }, "geometry": { "type": "Point", "coordinates": [ -75.150433278033773, 1.898370995888634 ] } },
{ "type": "Feature", "properties": { "OBJECTID": 47, "Id": 0, "area_m2": 7939.9366600800004, "Tipo": "Expansión- Industrial", "ORIG_FID": 5, "POINT_X": 880591.6106, "POINT_Y": 701776.6983, "CRS_ORIGINAL": "EPSG:21897", "FUENTE_PBOT": "PBOT 2015 — Cartografía de formulación", "CAPA_SIGOber": "PBOT2015_PUNTOS_EXPANSION" }, "geometry": { "type": "Point", "coordinates": [ -75.150747566965535, 1.899009003230494 ] } },
{ "type": "Feature", "properties": { "OBJECTID": 48, "Id": 0, "area_m2": 7939.9366600800004, "Tipo": "Expansión- Industrial", "ORIG_FID": 5, "POINT_X": 880720.7534, "POINT_Y": 701777.9033, "CRS_ORIGINAL": "EPSG:21897", "FUENTE_PBOT": "PBOT 2015 — Cartografía de formulación", "CAPA_SIGOber": "PBOT2015_PUNTOS_EXPANSION" }, "geometry": { "type": "Point", "coordinates": [ -75.149587028113331, 1.89902064559992 ] } },
{ "type": "Feature", "properties": { "OBJECTID": 49, "Id": 0, "area_m2": 7939.9366600800004, "Tipo": "Expansión- Industrial", "ORIG_FID": 5, "POINT_X": 880719.7455, "POINT_Y": 701705.7813, "CRS_ORIGINAL": "EPSG:21897", "FUENTE_PBOT": "PBOT 2015 — Cartografía de formulación", "CAPA_SIGOber": "PBOT2015_PUNTOS_EXPANSION" }, "geometry": { "type": "Point", "coordinates": [ -75.149595671480071, 1.898368508167283 ] } },
{ "type": "Feature", "properties": { "OBJECTID": 50, "Id": 0, "area_m2": 6540.2015870300002, "Tipo": null, "ORIG_FID": 6, "POINT_X": 893761.646, "POINT_Y": 706364.2886, "CRS_ORIGINAL": "EPSG:21897", "FUENTE_PBOT": "PBOT 2015 — Cartografía de formulación", "CAPA_SIGOber": "PBOT2015_PUNTOS_EXPANSION" }, "geometry": { "type": "Point", "coordinates": [ -75.032416234915587, 1.940563896010752 ] } },
{ "type": "Feature", "properties": { "OBJECTID": 51, "Id": 0, "area_m2": 6540.2015870300002, "Tipo": null, "ORIG_FID": 6, "POINT_X": 893835.8054, "POINT_Y": 706332.6685, "CRS_ORIGINAL": "EPSG:21897", "FUENTE_PBOT": "PBOT 2015 — Cartografía de formulación", "CAPA_SIGOber": "PBOT2015_PUNTOS_EXPANSION" }, "geometry": { "type": "Point", "coordinates": [ -75.031749592892723, 1.940278365839819 ] } },
{ "type": "Feature", "properties": { "OBJECTID": 52, "Id": 0, "area_m2": 6540.2015870300002, "Tipo": null, "ORIG_FID": 6, "POINT_X": 893805.2432, "POINT_Y": 706258.2251, "CRS_ORIGINAL": "EPSG:21897", "FUENTE_PBOT": "PBOT 2015 — Cartografía de formulación", "CAPA_SIGOber": "PBOT2015_PUNTOS_EXPANSION" }, "geometry": { "type": "Point", "coordinates": [ -75.03202386770964, 1.939605058546984 ] } },
{ "type": "Feature", "properties": { "OBJECTID": 53, "Id": 0, "area_m2": 6540.2015870300002, "Tipo": null, "ORIG_FID": 6, "POINT_X": 893730.1202, "POINT_Y": 706289.7512000001, "CRS_ORIGINAL": "EPSG:21897", "FUENTE_PBOT": "PBOT 2015 — Cartografía de formulación", "CAPA_SIGOber": "PBOT2015_PUNTOS_EXPANSION" }, "geometry": { "type": "Point", "coordinates": [ -75.032699168856666, 1.939889733652489 ] } },
{ "type": "Feature", "properties": { "OBJECTID": 54, "Id": 0, "area_m2": 6540.2015870300002, "Tipo": null, "ORIG_FID": 6, "POINT_X": 893761.646, "POINT_Y": 706364.2886, "CRS_ORIGINAL": "EPSG:21897", "FUENTE_PBOT": "PBOT 2015 — Cartografía de formulación", "CAPA_SIGOber": "PBOT2015_PUNTOS_EXPANSION" }, "geometry": { "type": "Point", "coordinates": [ -75.032416234915587, 1.940563896010752 ] } }
]
}
