{
"type": "FeatureCollection",
"name": "PBOT2015_ZONAS_HOMOGENEAS_URBANAS",
"crs": { "type": "name", "properties": { "name": "urn:ogc:def:crs:OGC:1.3:CRS84" } },
"features": [
{ "type": "Feature", "properties": { "Id": 0, "area_m2": 145924.841839, "Tipo": "Desarrollo de  vivienda de interés social y priori", "CRS_ORIGINAL": "EPSG:21897", "FUENTE_PBOT": "PBOT 2015 — Cartografía de formulación", "CAPA_SIGOber": "PBOT2015_ZONAS_HOMOGENEAS_URBANAS" }, "geometry": { "type": "MultiPolygon", "coordinates": [ [ [ [ -75.155131391853345, 1.902126790263831 ], [ -75.155008788682991, 1.901398759495764 ], [ -75.154342744102806, 1.901485289614849 ], [ -75.154134800648407, 1.899964261550477 ], [ -75.156733692118578, 1.899761174543145 ], [ -75.159214752185235, 1.900198547308166 ], [ -75.158490786231411, 1.901324962500925 ], [ -75.158328400663578, 1.900992639106247 ], [ -75.157874227886438, 1.900940300897229 ], [ -75.157496420975804, 1.901323327157339 ], [ -75.157690818700445, 1.901693204616879 ], [ -75.155131391853345, 1.902126790263831 ] ], [ [ -75.156964312799502, 1.900923509231483 ], [ -75.156938916202904, 1.900223101850679 ], [ -75.156719664634409, 1.900038712001476 ], [ -75.156447941506713, 1.900069019645071 ], [ -75.156239264201147, 1.900328430875104 ], [ -75.156261448662562, 1.900602969192755 ], [ -75.156570357995932, 1.901016320641215 ], [ -75.156964312799502, 1.900923509231483 ] ] ], [ [ [ -75.164837464866807, 1.907455386371509 ], [ -75.164754241785459, 1.907357215592116 ], [ -75.164845330320972, 1.906723662133001 ], [ -75.164677508085518, 1.906266743972073 ], [ -75.164425758274845, 1.90611609770335 ], [ -75.164150654991971, 1.906269824704637 ], [ -75.163766112513315, 1.90583863421041 ], [ -75.163390782281638, 1.905866928740972 ], [ -75.163505810324182, 1.905176927290094 ], [ -75.166172429928039, 1.905179901473887 ], [ -75.166019271872912, 1.907195394764139 ], [ -75.164837464866807, 1.907455386371509 ] ] ], [ [ [ -75.163070661374334, 1.907605819767911 ], [ -75.163235639953925, 1.906816853159149 ], [ -75.163147410492371, 1.906554281604247 ], [ -75.163255685636315, 1.906519445168443 ], [ -75.163509097253183, 1.907012611436699 ], [ -75.163914083268949, 1.907166523928011 ], [ -75.163996559332446, 1.907603688808801 ], [ -75.164303823156104, 1.907847899892344 ], [ -75.163070661374334, 1.907605819767911 ] ] ] ] } },
{ "type": "Feature", "properties": { "Id": 0, "area_m2": 7939.9376474399996, "Tipo": "Área si construir para desarrollo industrial", "CRS_ORIGINAL": "EPSG:21897", "FUENTE_PBOT": "PBOT 2015 — Cartografía de formulación", "CAPA_SIGOber": "PBOT2015_ZONAS_HOMOGENEAS_URBANAS" }, "geometry": { "type": "Polygon", "coordinates": [ [ [ -75.149595671480071, 1.898368508167283 ], [ -75.150433278033773, 1.898370995888634 ], [ -75.150747566965535, 1.899009003230494 ], [ -75.149587028113331, 1.89902064559992 ], [ -75.149595671480071, 1.898368508167283 ] ] ] } },
{ "type": "Feature", "properties": { "Id": 0, "area_m2": 56722.132103900003, "Tipo": "Franjas de protección hidráulica -exp", "CRS_ORIGINAL": "EPSG:21897", "FUENTE_PBOT": "PBOT 2015 — Cartografía de formulación", "CAPA_SIGOber": "PBOT2015_ZONAS_HOMOGENEAS_URBANAS" }, "geometry": { "type": "MultiPolygon", "coordinates": [ [ [ [ -75.156682479417228, 1.901047422264049 ], [ -75.156230018413382, 1.900527277779548 ], [ -75.156250386081709, 1.900300572365513 ], [ -75.15647812288482, 1.900052384443194 ], [ -75.156750051625366, 1.90004990536346 ], [ -75.156982730915828, 1.900322869601621 ], [ -75.157006969300241, 1.900850760050917 ], [ -75.156682479417228, 1.901047422264049 ] ], [ [ -75.15663317014895, 1.900295633511068 ], [ -75.156490383097363, 1.900456901330151 ], [ -75.156711084444709, 1.900776408235118 ], [ -75.156747537446151, 1.900491392946307 ], [ -75.15663317014895, 1.900295633511068 ] ] ], [ [ [ -75.157527475061357, 1.90154818983726 ], [ -75.157553394977526, 1.901182139418444 ], [ -75.157874227886438, 1.900940300897229 ], [ -75.158328400663578, 1.900992639106247 ], [ -75.158499513184637, 1.901271914427702 ], [ -75.158291729211484, 1.901529402893401 ], [ -75.158150710791347, 1.901244614079601 ], [ -75.157962734757291, 1.901178002147536 ], [ -75.157786313894363, 1.901421858356236 ], [ -75.158125142230944, 1.901383274077833 ], [ -75.158239669364278, 1.901544798198592 ], [ -75.157690818700445, 1.901693204616879 ], [ -75.157527475061357, 1.90154818983726 ] ] ], [ [ [ -75.166028956885924, 1.908075681094096 ], [ -75.164573553462787, 1.908049788954833 ], [ -75.164047588735158, 1.907670805993561 ], [ -75.163924256059644, 1.907180481772846 ], [ -75.163521980993409, 1.907024736504136 ], [ -75.163298132215417, 1.906637121072968 ], [ -75.163229118109442, 1.906416831033529 ], [ -75.16333719326164, 1.906159890068332 ], [ -75.163699606470075, 1.906820676627652 ], [ -75.16414692069992, 1.907027285427655 ], [ -75.164238097888983, 1.907478871118581 ], [ -75.164733380756545, 1.907807912443492 ], [ -75.165817192405683, 1.907601772324116 ], [ -75.165959010399845, 1.907813709223969 ], [ -75.166015020311008, 1.907658956383581 ], [ -75.16639120359838, 1.907551935313829 ], [ -75.166783694028368, 1.907689457405962 ], [ -75.16703359054037, 1.906914167825545 ], [ -75.166982158016353, 1.906613202891591 ], [ -75.16716210737178, 1.906411443487072 ], [ -75.166730977317229, 1.906761448636403 ], [ -75.166458732279807, 1.907367856201564 ], [ -75.164764582675815, 1.907763088805181 ], [ -75.164380935085063, 1.907397926602391 ], [ -75.164597594484263, 1.907110699750821 ], [ -75.164359708994908, 1.906930949052418 ], [ -75.164578353375745, 1.906770037957328 ], [ -75.164392875282815, 1.906714938793128 ], [ -75.164444118597302, 1.906402526963024 ], [ -75.164206337926672, 1.906596242333481 ], [ -75.16374504424958, 1.906433948538564 ], [ -75.163647030951012, 1.906081998517854 ], [ -75.163341441481336, 1.906136663757951 ], [ -75.163390782281638, 1.905866928740972 ], [ -75.163766112513315, 1.90583863421041 ], [ -75.164150654991971, 1.906269824704637 ], [ -75.164390570338583, 1.906118441804787 ], [ -75.164637697736325, 1.906212470878819 ], [ -75.164845330320972, 1.906723662133001 ], [ -75.164754241785459, 1.907357215592116 ], [ -75.164837464866807, 1.907455386371509 ], [ -75.166322716936804, 1.90711292438851 ], [ -75.166497412472353, 1.906625971534561 ], [ -75.166841298376553, 1.906250433826601 ], [ -75.167113003602367, 1.90612620923058 ], [ -75.167364684222179, 1.906232456926563 ], [ -75.167427166184837, 1.906492582654325 ], [ -75.166972273732995, 1.907885082422631 ], [ -75.166739698779523, 1.907958679668004 ], [ -75.166391360823951, 1.907823809603144 ], [ -75.166028956885924, 1.908075681094096 ] ] ] ] } },
{ "type": "Feature", "properties": { "Id": 0, "area_m2": 517200.88495500002, "Tipo": "Franjas de protección hidráulica", "CRS_ORIGINAL": "EPSG:21897", "FUENTE_PBOT": "PBOT 2015 — Cartografía de formulación", "CAPA_SIGOber": "PBOT2015_ZONAS_HOMOGENEAS_URBANAS" }, "geometry": { "type": "MultiPolygon", "coordinates": [ [ [ [ -75.1553713682693, 1.899619019128837 ], [ -75.155262919724336, 1.899123734255369 ], [ -75.155358788284943, 1.898445463273412 ], [ -75.155079380976474, 1.898397074821488 ], [ -75.154930492105208, 1.898118786947499 ], [ -75.155057709486343, 1.89772179507175 ], [ -75.15502257142964, 1.897292075245006 ], [ -75.154097261266116, 1.897542885632216 ], [ -75.153573637377249, 1.897512472398414 ], [ -75.153279122833695, 1.897245427659491 ], [ -75.153267707084765, 1.896945605464699 ], [ -75.153393010602173, 1.89676807033171 ], [ -75.154748483957619, 1.896529874796064 ], [ -75.155436134616551, 1.896691684859432 ], [ -75.155746358673284, 1.896923327431314 ], [ -75.156109334474976, 1.89802637525711 ], [ -75.156294218044039, 1.899086606163888 ], [ -75.155917758014027, 1.899834992679668 ], [ -75.15561420756363, 1.899850634332967 ], [ -75.1553713682693, 1.899619019128837 ] ], [ [ -75.155776381219454, 1.89919817221516 ], [ -75.155961144840134, 1.899168861625586 ], [ -75.156027090899414, 1.898994318081966 ], [ -75.155494424785118, 1.8970409555957 ], [ -75.154639298936956, 1.896797289572094 ], [ -75.153533556038909, 1.897002926849216 ], [ -75.153571787876729, 1.897214970783568 ], [ -75.15391949637025, 1.897278371858674 ], [ -75.154916035221646, 1.897026706585927 ], [ -75.155197367997118, 1.897070350675201 ], [ -75.155328502412118, 1.89758277295316 ], [ -75.155213275365185, 1.898136126667967 ], [ -75.155338721022062, 1.898152824327894 ], [ -75.155540875605183, 1.897889602544981 ], [ -75.155624152144298, 1.897961819543758 ], [ -75.1555337334961, 1.899145504633792 ], [ -75.15574223171383, 1.899604891205252 ], [ -75.155776381219454, 1.89919817221516 ] ] ], [ [ [ -75.15202200537756, 1.900743238562936 ], [ -75.151999763825273, 1.900585464467364 ], [ -75.151629521009824, 1.900637439178091 ], [ -75.151545952392496, 1.900527217905473 ], [ -75.15160063884997, 1.899924225553166 ], [ -75.151181011182544, 1.899522393699888 ], [ -75.150873620242464, 1.898754747004994 ], [ -75.150164256929216, 1.897900826074843 ], [ -75.149857722309306, 1.896533831245891 ], [ -75.14954249732007, 1.895931316704981 ], [ -75.149741777436589, 1.895445968900121 ], [ -75.150082937457867, 1.895421071343948 ], [ -75.150577444917985, 1.895591272565052 ], [ -75.151026934355912, 1.896698023233912 ], [ -75.151430532874926, 1.89703666638042 ], [ -75.151471041365923, 1.897375875816149 ], [ -75.152079397686165, 1.897602334041792 ], [ -75.152434953191104, 1.898110962170205 ], [ -75.15239109055419, 1.898734409562207 ], [ -75.152797269419665, 1.899180936492359 ], [ -75.153034934153069, 1.900066132438149 ], [ -75.152847118686637, 1.900416304186115 ], [ -75.15202200537756, 1.900743238562936 ] ], [ [ -75.15039168276742, 1.895787994405621 ], [ -75.149845106049199, 1.895696516065487 ], [ -75.149806878522327, 1.895878226451062 ], [ -75.150115244206262, 1.896452520499755 ], [ -75.150380082453083, 1.897710728894996 ], [ -75.151096923227925, 1.89860114861381 ], [ -75.151405075289915, 1.899371544429344 ], [ -75.15185618327645, 1.899826422867225 ], [ -75.151770017420063, 1.900376368532381 ], [ -75.152102678049658, 1.900467611715537 ], [ -75.152697195522606, 1.900190855885511 ], [ -75.152768783031689, 1.899932654464028 ], [ -75.152598237239559, 1.89939199252979 ], [ -75.152123454330408, 1.898850994038342 ], [ -75.152138506854143, 1.898124001039849 ], [ -75.151915415592413, 1.897817646076021 ], [ -75.151297677860782, 1.89759216678727 ], [ -75.151188816082367, 1.897156797397014 ], [ -75.150794591996032, 1.896850253806408 ], [ -75.15039168276742, 1.895787994405621 ] ] ], [ [ [ -75.149222070392909, 1.900882113757526 ], [ -75.149203558220265, 1.900689989887075 ], [ -75.149246073628248, 1.900985588382319 ], [ -75.149222070392909, 1.900882113757526 ] ] ], [ [ [ -75.163142954353987, 1.900836385852438 ], [ -75.16289009272279, 1.899550030474889 ], [ -75.162613140325504, 1.899057069285734 ], [ -75.16206624777918, 1.899176367528147 ], [ -75.162033667301912, 1.899489024675881 ], [ -75.162134736376544, 1.899832760432606 ], [ -75.162387505792864, 1.899812375810554 ], [ -75.162592137389922, 1.899967107930347 ], [ -75.162603632201751, 1.900306125597715 ], [ -75.162009808054705, 1.900734119815934 ], [ -75.161723854874978, 1.900725333184903 ], [ -75.161533518056743, 1.900487014859319 ], [ -75.161429379965881, 1.899383121495331 ], [ -75.161124641611309, 1.899381439609908 ], [ -75.160462808499915, 1.899089552090396 ], [ -75.159569451424431, 1.898457163538394 ], [ -75.159032494961224, 1.897903135024514 ], [ -75.157551825613567, 1.897523277443262 ], [ -75.156902559275721, 1.896869017130595 ], [ -75.155912727191804, 1.896341395415603 ], [ -75.155669663337079, 1.895841958807633 ], [ -75.155737519743482, 1.89553695887805 ], [ -75.156051840559527, 1.895372052412525 ], [ -75.15642957170131, 1.895404886698435 ], [ -75.157007050651899, 1.8957439214051 ], [ -75.15759372507695, 1.896349572361236 ], [ -75.159025989401812, 1.895928621647865 ], [ -75.160104574368759, 1.896285891429952 ], [ -75.160922259492253, 1.896772342995777 ], [ -75.161077171565353, 1.897001819774806 ], [ -75.161048502038881, 1.897331048254868 ], [ -75.160606814768386, 1.89813490645089 ], [ -75.16147950179564, 1.898501210002923 ], [ -75.162337641626451, 1.898336094361749 ], [ -75.162979166171297, 1.897634396572626 ], [ -75.163717912036972, 1.897626347066617 ], [ -75.164365668725424, 1.897808275825433 ], [ -75.164625556490293, 1.898471905258144 ], [ -75.165138962000782, 1.89868521929806 ], [ -75.165253642199033, 1.899061210032937 ], [ -75.165005040744418, 1.899253046636261 ], [ -75.164630485320245, 1.89918932536932 ], [ -75.164490295307431, 1.899488196497175 ], [ -75.164181138376421, 1.899519377641795 ], [ -75.163993201677116, 1.899350959399681 ], [ -75.163778399847246, 1.898700853422833 ], [ -75.163274553003404, 1.898261485923986 ], [ -75.163044803455534, 1.898674919459776 ], [ -75.163581253043318, 1.899432805342379 ], [ -75.163784333118457, 1.900831229505059 ], [ -75.163691258570339, 1.901025127201097 ], [ -75.163492068753698, 1.901097916388167 ], [ -75.163142954353987, 1.900836385852438 ] ], [ [ -75.163256778032917, 1.899479047700298 ], [ -75.163153645893416, 1.899786871673042 ], [ -75.163408252979366, 1.900783342418136 ], [ -75.163498148088593, 1.900826457134016 ], [ -75.163256778032917, 1.899479047700298 ] ], [ [ -75.16285801459918, 1.89887823881773 ], [ -75.163004475554942, 1.899255760494003 ], [ -75.163085814943969, 1.899344969473918 ], [ -75.163054635459631, 1.899173653618771 ], [ -75.16285801459918, 1.89887823881773 ] ], [ [ -75.161861071755112, 1.898932086255015 ], [ -75.162679458885734, 1.898722445765321 ], [ -75.163058072550967, 1.898084331677649 ], [ -75.163338814913757, 1.89794698814692 ], [ -75.163998817148709, 1.898544529113175 ], [ -75.164258329271362, 1.899255802430818 ], [ -75.164453534647095, 1.898899439146108 ], [ -75.165005087477965, 1.898951547852989 ], [ -75.164437333995608, 1.898669964979148 ], [ -75.164216035136278, 1.898033918269579 ], [ -75.163682895788426, 1.897895309897012 ], [ -75.16301991032843, 1.897905611590697 ], [ -75.162450845465457, 1.898585644545486 ], [ -75.161387239489329, 1.898756450840701 ], [ -75.160362099675822, 1.898262963375481 ], [ -75.160347212127206, 1.897992832428817 ], [ -75.16082233627796, 1.897134098191176 ], [ -75.160461084225787, 1.896784101154251 ], [ -75.159113511294336, 1.896200268263545 ], [ -75.157547225580771, 1.896618283497862 ], [ -75.156359924987683, 1.895671838256284 ], [ -75.155951715615316, 1.895701682656031 ], [ -75.156111369687551, 1.896157998039498 ], [ -75.157189131517413, 1.896731525404436 ], [ -75.157743115381479, 1.897323771841293 ], [ -75.159148129521014, 1.897656509176988 ], [ -75.159771644327904, 1.898273032488455 ], [ -75.160650441103158, 1.898886259632516 ], [ -75.161235066896666, 1.899129807194017 ], [ -75.161614444959795, 1.899082584436812 ], [ -75.161874415618215, 1.900493909574655 ], [ -75.161961160937324, 1.900264171249421 ], [ -75.162378434312458, 1.900142662921673 ], [ -75.161868996280674, 1.90012288345566 ], [ -75.16175520506809, 1.899496276120402 ], [ -75.161861071755112, 1.898932086255015 ] ] ], [ [ [ -75.159857759768002, 1.901820292619551 ], [ -75.159348310155309, 1.901580607332192 ], [ -75.158868867025006, 1.901824967829809 ], [ -75.158296830241994, 1.901535446899161 ], [ -75.158490786231411, 1.901324962500925 ], [ -75.158887138593556, 1.901528206228918 ], [ -75.159044129674186, 1.90140373920062 ], [ -75.159198058928453, 1.900572916559977 ], [ -75.159592647220222, 1.900255320166638 ], [ -75.15997750466093, 1.90032559720511 ], [ -75.160338919464081, 1.900675251137496 ], [ -75.16021255979615, 1.900970177700925 ], [ -75.159706501780363, 1.901106871253417 ], [ -75.159580807862199, 1.901342937380155 ], [ -75.160171955678919, 1.901519742748328 ], [ -75.159857759768002, 1.901820292619551 ] ], [ [ -75.159274238600418, 1.901262390222248 ], [ -75.159667655991242, 1.900692639246006 ], [ -75.160069814594777, 1.900700255424977 ], [ -75.159558682802455, 1.900546925273294 ], [ -75.159274238600418, 1.901262390222248 ] ] ], [ [ [ -75.158756857692566, 1.902401514803816 ], [ -75.15801860278286, 1.901700622068346 ], [ -75.15769007952467, 1.901693391791935 ], [ -75.158239669364278, 1.901544798198592 ], [ -75.158983884670477, 1.902185001320413 ], [ -75.159068265870559, 1.902062423284754 ], [ -75.158834550182817, 1.901931434793881 ], [ -75.159268450068936, 1.901687721442067 ], [ -75.159558501352834, 1.901682950502849 ], [ -75.159877837084764, 1.901916298746225 ], [ -75.159667538761255, 1.902169279675038 ], [ -75.159379482612621, 1.901939128237318 ], [ -75.159320746741841, 1.902287842696998 ], [ -75.159085175805671, 1.902446121998442 ], [ -75.158756857692566, 1.902401514803816 ] ] ], [ [ [ -75.156478374578867, 1.904544192828349 ], [ -75.15647751850797, 1.90445500084588 ], [ -75.156963198996863, 1.904460690456319 ], [ -75.156964584997169, 1.90451858033468 ], [ -75.156478374578867, 1.904544192828349 ] ] ], [ [ [ -75.155014796865473, 1.905772298070039 ], [ -75.155107820955607, 1.90577052699066 ], [ -75.154847864334201, 1.905777798083002 ], [ -75.155014796865473, 1.905772298070039 ] ] ], [ [ [ -75.153084332932565, 1.905762052717516 ], [ -75.153108041496452, 1.905717420255669 ], [ -75.153112231021581, 1.905798920816267 ], [ -75.153084332932565, 1.905762052717516 ] ] ], [ [ [ -75.148113343921736, 1.912889342344622 ], [ -75.147977062103237, 1.912536447988198 ], [ -75.148031874809902, 1.911322836658519 ], [ -75.148270343203066, 1.910611638687765 ], [ -75.148587417460917, 1.910611719527469 ], [ -75.148309612899155, 1.91127903008874 ], [ -75.148253393637958, 1.912579337578505 ], [ -75.148683634953613, 1.912883314887429 ], [ -75.149352612352402, 1.911869601822712 ], [ -75.150011301242458, 1.911457363697911 ], [ -75.15080721102531, 1.911404005537255 ], [ -75.152144239158446, 1.912008167276157 ], [ -75.1526302318467, 1.911966584845865 ], [ -75.153725930420933, 1.911447250097907 ], [ -75.154590852055364, 1.91139040762449 ], [ -75.155281677626775, 1.911058648741853 ], [ -75.157349372750346, 1.911001614638977 ], [ -75.158086973905895, 1.910710258730194 ], [ -75.160167731410795, 1.91035669217172 ], [ -75.161327994514096, 1.909954392983657 ], [ -75.163150326661409, 1.908914172118333 ], [ -75.16363652105376, 1.908805366863882 ], [ -75.164134456708794, 1.908858479241049 ], [ -75.164875037834548, 1.909418127334596 ], [ -75.16557648570074, 1.909729598944494 ], [ -75.16915834143515, 1.909942460395418 ], [ -75.169106674944956, 1.910138732979878 ], [ -75.165502328679906, 1.909993039735519 ], [ -75.16472041463885, 1.909643318896605 ], [ -75.164015375247217, 1.909101843655848 ], [ -75.163671884438443, 1.909074284217055 ], [ -75.163269723659212, 1.909157379599033 ], [ -75.161437138337291, 1.910202578705037 ], [ -75.160005752135774, 1.910679869793263 ], [ -75.158139740923119, 1.910976272770584 ], [ -75.157392026500588, 1.911273668201564 ], [ -75.155334444302113, 1.911324663109041 ], [ -75.154673784023657, 1.911649537730082 ], [ -75.15381275469116, 1.91170406031105 ], [ -75.152627893510669, 1.912242645743021 ], [ -75.152079726312778, 1.91227619038773 ], [ -75.150827296073672, 1.911684851595902 ], [ -75.15035513655441, 1.911663772987224 ], [ -75.149554506197475, 1.912049372074994 ], [ -75.148786872417148, 1.913244858417361 ], [ -75.148113343921736, 1.912889342344622 ] ] ] ] } },
{ "type": "Feature", "properties": { "Id": 0, "area_m2": 141179.285714, "Tipo": "Áreas de alto riesgo no mitigable", "CRS_ORIGINAL": "EPSG:21897", "FUENTE_PBOT": "PBOT 2015 — Cartografía de formulación", "CAPA_SIGOber": "PBOT2015_ZONAS_HOMOGENEAS_URBANAS" }, "geometry": { "type": "Polygon", "coordinates": [ [ [ -75.147417625594514, 1.912591144311476 ], [ -75.147147835045814, 1.912619770171582 ], [ -75.147037021429526, 1.912241150579916 ], [ -75.146457000631784, 1.911583100511035 ], [ -75.145998583080228, 1.911167454855032 ], [ -75.145507739271252, 1.910926036202258 ], [ -75.145447740772312, 1.910007640866049 ], [ -75.145585803179102, 1.908910670251693 ], [ -75.146215093595032, 1.907460440513956 ], [ -75.147688305195018, 1.908223399824272 ], [ -75.148751971794255, 1.90850044236825 ], [ -75.149090349345641, 1.908999300702292 ], [ -75.149088414207682, 1.909387425415458 ], [ -75.148776444363165, 1.909685504314329 ], [ -75.148035664657087, 1.911286537535264 ], [ -75.147999694984321, 1.912680123588998 ], [ -75.148140742588041, 1.912915102658129 ], [ -75.148540499341294, 1.913125839800657 ], [ -75.14815233037028, 1.913356021697121 ], [ -75.147666552450985, 1.913277055019961 ], [ -75.147475533874669, 1.913015359038216 ], [ -75.147417625594514, 1.912591144311476 ] ], [ [ -75.145585536051811, 1.910624690697136 ], [ -75.145585242669469, 1.910624601383564 ], [ -75.14556715942679, 1.910923743951234 ], [ -75.145585536051811, 1.910624690697136 ] ] ] } },
{ "type": "Feature", "properties": { "Id": 0, "area_m2": 347765.96541800001, "Tipo": "Centro de uso mixto", "CRS_ORIGINAL": "EPSG:21897", "FUENTE_PBOT": "PBOT 2015 — Cartografía de formulación", "CAPA_SIGOber": "PBOT2015_ZONAS_HOMOGENEAS_URBANAS" }, "geometry": { "type": "Polygon", "coordinates": [ [ [ -75.156965778045475, 1.910941335278437 ], [ -75.157143778752555, 1.910007476678112 ], [ -75.1570537293168, 1.907652116889102 ], [ -75.15564057092385, 1.907690751091192 ], [ -75.155622104756802, 1.908556804916101 ], [ -75.152935339144918, 1.908615965505971 ], [ -75.152925240621741, 1.907697297454743 ], [ -75.150038796050453, 1.907833138578622 ], [ -75.149884045218641, 1.910492390228286 ], [ -75.149757372930239, 1.910612020024021 ], [ -75.148587417460917, 1.910611719527469 ], [ -75.149365888712239, 1.909346636372154 ], [ -75.149352212427161, 1.908934789976584 ], [ -75.149166232026957, 1.908510490930095 ], [ -75.148537288668095, 1.908092452926731 ], [ -75.14857323708101, 1.905954220483899 ], [ -75.148485544433015, 1.905873011140395 ], [ -75.148662486092405, 1.905493936647411 ], [ -75.149291289686531, 1.905525889115017 ], [ -75.149845247469329, 1.905226269215846 ], [ -75.150353637467717, 1.905199695611159 ], [ -75.150535173988587, 1.905002098865609 ], [ -75.151130338893893, 1.905006429972356 ], [ -75.151113086123601, 1.905915547076244 ], [ -75.153169176175879, 1.905886070154402 ], [ -75.153758141092922, 1.906018277797941 ], [ -75.154565827250096, 1.905736615347022 ], [ -75.155096411010845, 1.905772373542694 ], [ -75.155933765779622, 1.905520434304926 ], [ -75.156353093150997, 1.905646004813272 ], [ -75.15660173966441, 1.905458791511045 ], [ -75.156680995911088, 1.905002400744542 ], [ -75.15678208833161, 1.904960463219333 ], [ -75.157816806996124, 1.904953250143416 ], [ -75.15797367816289, 1.905144064549283 ], [ -75.158273857779832, 1.905161370282889 ], [ -75.158641500819002, 1.905390796278424 ], [ -75.158345295568282, 1.905985619626524 ], [ -75.158265524641337, 1.907650766644117 ], [ -75.157758811662688, 1.907645269902359 ], [ -75.157751797362764, 1.908569198235026 ], [ -75.158375387408427, 1.908571310316506 ], [ -75.158383192007605, 1.908849410414534 ], [ -75.158086635152841, 1.909089330523945 ], [ -75.157944620706814, 1.910004464793221 ], [ -75.157552935789568, 1.910038131200653 ], [ -75.157305971550116, 1.910928171806866 ], [ -75.156965778045475, 1.910941335278437 ] ], [ [ -75.149647302238705, 1.906891212888593 ], [ -75.149569159832794, 1.907187697499926 ], [ -75.149652592594123, 1.907212378191176 ], [ -75.149647302238705, 1.906891212888593 ] ], [ [ -75.149998643603467, 1.906035189915998 ], [ -75.149366934592038, 1.906025796033201 ], [ -75.149365579608002, 1.9067408434691 ], [ -75.149979548302838, 1.906733047942914 ], [ -75.149998643603467, 1.906035189915998 ] ] ] } },
{ "type": "Feature", "properties": { "Id": 0, "area_m2": 3970.13244786, "Tipo": "Artesanal y semi-industrial", "CRS_ORIGINAL": "EPSG:21897", "FUENTE_PBOT": "PBOT 2015 — Cartografía de formulación", "CAPA_SIGOber": "PBOT2015_ZONAS_HOMOGENEAS_URBANAS" }, "geometry": { "type": "Polygon", "coordinates": [ [ [ -75.149136447097646, 1.89914151396861 ], [ -75.149111384615239, 1.898501807435279 ], [ -75.149383519693956, 1.898513666623534 ], [ -75.149595671480071, 1.898368508167283 ], [ -75.149585111512295, 1.899165306323023 ], [ -75.149136447097646, 1.89914151396861 ] ] ] } },
{ "type": "Feature", "properties": { "Id": 0, "area_m2": 718838.747967, "Tipo": "Residencial consolidada", "CRS_ORIGINAL": "EPSG:21897", "FUENTE_PBOT": "PBOT 2015 — Cartografía de formulación", "CAPA_SIGOber": "PBOT2015_ZONAS_HOMOGENEAS_URBANAS" }, "geometry": { "type": "MultiPolygon", "coordinates": [ [ [ [ -75.161129265527691, 1.905342710237875 ], [ -75.160651607669848, 1.905135862258955 ], [ -75.159732261026178, 1.905336189599368 ], [ -75.158764747607862, 1.904814433581383 ], [ -75.158603062182081, 1.904564575186961 ], [ -75.158171910067139, 1.904296493130493 ], [ -75.157666810173623, 1.904179164422629 ], [ -75.157385870149682, 1.904370916085791 ], [ -75.156368072599463, 1.904487745288082 ], [ -75.156098611335665, 1.904938368600499 ], [ -75.155326515568632, 1.905022184606106 ], [ -75.155086042328151, 1.905177449622244 ], [ -75.154580855024008, 1.905114031505987 ], [ -75.154384779904433, 1.903114393217532 ], [ -75.152683336421958, 1.903376129012495 ], [ -75.152755664307321, 1.903810465347127 ], [ -75.152488730528844, 1.9036726280775 ], [ -75.152039632581676, 1.903722740905669 ], [ -75.151675835621731, 1.904069751519665 ], [ -75.150380056837889, 1.904174486748491 ], [ -75.15006908565033, 1.904615557601476 ], [ -75.149622303196352, 1.904660517215914 ], [ -75.149245479310125, 1.904903069492496 ], [ -75.149544401596486, 1.903633587743278 ], [ -75.150206181866352, 1.903695885861221 ], [ -75.152637273627022, 1.903313503660974 ], [ -75.152500078822115, 1.902565972456322 ], [ -75.149646364077157, 1.903050710279724 ], [ -75.150626532844996, 1.90283308152501 ], [ -75.150546702969947, 1.902276320076085 ], [ -75.149609266357018, 1.902298971440852 ], [ -75.150552628442838, 1.902158781196008 ], [ -75.150389268560843, 1.900823558217997 ], [ -75.150475182248186, 1.900772143959311 ], [ -75.151601316838892, 1.900602290080482 ], [ -75.152138038875293, 1.900736529554506 ], [ -75.152771586542684, 1.900458085640355 ], [ -75.154168934362716, 1.900265896824643 ], [ -75.154342744102806, 1.901485289614849 ], [ -75.155008788682991, 1.901398759495764 ], [ -75.155092306889998, 1.902042735356912 ], [ -75.154783843218524, 1.902114568818773 ], [ -75.154927032178136, 1.902939848004852 ], [ -75.154499125419704, 1.903062136629601 ], [ -75.154599649323615, 1.90409557973941 ], [ -75.156361479608748, 1.904029843220177 ], [ -75.159435898665095, 1.902362658530695 ], [ -75.159949815830856, 1.901877592738855 ], [ -75.160388644184806, 1.901227583079736 ], [ -75.161635193310417, 1.902695057720464 ], [ -75.162442149297945, 1.901999602452929 ], [ -75.16376317098505, 1.903010483059106 ], [ -75.163450179064426, 1.903162966739874 ], [ -75.16304554768935, 1.903126770558902 ], [ -75.162646006490093, 1.903662966487114 ], [ -75.162026062768746, 1.903887082237344 ], [ -75.161425222675931, 1.904769196529945 ], [ -75.161386426808392, 1.90515001334937 ], [ -75.161129265527691, 1.905342710237875 ] ], [ [ -75.158533661463451, 1.904004129649071 ], [ -75.159209817371902, 1.903542489235979 ], [ -75.158682052654115, 1.902910887846428 ], [ -75.158117141982885, 1.903175228058704 ], [ -75.157764638289734, 1.903610019238189 ], [ -75.157775658600571, 1.90372649527074 ], [ -75.158533661463451, 1.904004129649071 ] ], [ [ -75.151084106528117, 1.90186268262311 ], [ -75.15102437498507, 1.901507475731562 ], [ -75.150508489629942, 1.901584947898255 ], [ -75.150570824403204, 1.901979534083626 ], [ -75.151084106528117, 1.90186268262311 ] ], [ [ -75.152148369709536, 1.901703597216857 ], [ -75.152358157261389, 1.901728047154339 ], [ -75.152318940199066, 1.901429570644419 ], [ -75.152113653156036, 1.901441795981344 ], [ -75.152148369709536, 1.901703597216857 ] ], [ [ -75.153340752922517, 1.90097476097593 ], [ -75.153416545783486, 1.901540144223177 ], [ -75.153687198850363, 1.901503727873951 ], [ -75.153610532375765, 1.900945308537897 ], [ -75.153340752922517, 1.90097476097593 ] ] ], [ [ [ -75.150610696155738, 1.904856915063697 ], [ -75.151171954301091, 1.90470004270816 ], [ -75.151865624701074, 1.904741682631114 ], [ -75.152149740074378, 1.904489621626029 ], [ -75.152902150978633, 1.904662340232327 ], [ -75.153169176175879, 1.905886070154402 ], [ -75.151113086123601, 1.905915547076244 ], [ -75.151130338893893, 1.905006429972356 ], [ -75.150535173988587, 1.905002098865609 ], [ -75.150610696155738, 1.904856915063697 ] ] ], [ [ [ -75.159580283888602, 1.909717695289483 ], [ -75.159117986290383, 1.909137204240497 ], [ -75.158383192007605, 1.908849410414534 ], [ -75.158375387408427, 1.908571310316506 ], [ -75.157751797362764, 1.908569198235026 ], [ -75.157758811662688, 1.907645269902359 ], [ -75.158265524641337, 1.907650766644117 ], [ -75.158345295568282, 1.905985619626524 ], [ -75.158641500819002, 1.905390796278424 ], [ -75.159220136502441, 1.905782741115156 ], [ -75.159768702566126, 1.905955464782283 ], [ -75.159776396328979, 1.906194915455977 ], [ -75.160009384431632, 1.906191181224816 ], [ -75.160015792648792, 1.905934088513755 ], [ -75.159875272658141, 1.90591990719461 ], [ -75.159966393187617, 1.905881722105003 ], [ -75.160359683642071, 1.905934619470407 ], [ -75.160631378732162, 1.905779114760169 ], [ -75.160843302386354, 1.905982116718714 ], [ -75.161281211521739, 1.905992674382446 ], [ -75.161639295023974, 1.905739700723158 ], [ -75.161900283107798, 1.906084447672672 ], [ -75.162421019201034, 1.906295629715001 ], [ -75.162249269729401, 1.907366068312729 ], [ -75.162023430257562, 1.90743080935147 ], [ -75.162011666980092, 1.907624599445697 ], [ -75.160903682989968, 1.907658816260142 ], [ -75.160886665736911, 1.908923915124425 ], [ -75.160025933038952, 1.908914907717409 ], [ -75.159954808871476, 1.909235532196417 ], [ -75.160069299263682, 1.909962917113921 ], [ -75.159539095839236, 1.910000856308879 ], [ -75.159580283888602, 1.909717695289483 ] ] ], [ [ [ -75.156299041459093, 1.910820020977704 ], [ -75.15632495476585, 1.91066845221042 ], [ -75.155686342603303, 1.910511978267133 ], [ -75.154886634871488, 1.91064193333665 ], [ -75.154742430541958, 1.910736725347425 ], [ -75.154872404577176, 1.910849013644384 ], [ -75.154798401651675, 1.910922854814955 ], [ -75.154534281819721, 1.910741381641349 ], [ -75.154253569773303, 1.910800274966922 ], [ -75.153805681553877, 1.910567002444363 ], [ -75.153275416320795, 1.91081070270044 ], [ -75.153246215021952, 1.910689713657149 ], [ -75.152933718964434, 1.910804544385695 ], [ -75.152862743647532, 1.910488809329652 ], [ -75.152362372354617, 1.910459456936199 ], [ -75.151805429064069, 1.910148621093314 ], [ -75.151422207110599, 1.91034712738328 ], [ -75.151289993095446, 1.910803979909484 ], [ -75.150661398219754, 1.910485440113093 ], [ -75.149884045218641, 1.910492390228286 ], [ -75.150038796050453, 1.907833138578622 ], [ -75.152925240621741, 1.907697297454743 ], [ -75.152935339144918, 1.908615965505971 ], [ -75.155622104756802, 1.908556804916101 ], [ -75.15564057092385, 1.907690751091192 ], [ -75.1570537293168, 1.907652116889102 ], [ -75.157169801516858, 1.90880443967567 ], [ -75.157014153272243, 1.910834914384972 ], [ -75.156834701858031, 1.91096423552996 ], [ -75.156299041459093, 1.910820020977704 ] ] ] ] } },
{ "type": "Feature", "properties": { "Id": 0, "area_m2": 288544.66107500001, "Tipo": "Residencial no consolidada", "CRS_ORIGINAL": "EPSG:21897", "FUENTE_PBOT": "PBOT 2015 — Cartografía de formulación", "CAPA_SIGOber": "PBOT2015_ZONAS_HOMOGENEAS_URBANAS" }, "geometry": { "type": "MultiPolygon", "coordinates": [ [ [ [ -75.149420105523987, 1.900301638480236 ], [ -75.149136447097632, 1.89914151396861 ], [ -75.149585111512295, 1.899165306323039 ], [ -75.149581393155074, 1.899445822531532 ], [ -75.149819818644986, 1.899445897925569 ], [ -75.149826255610748, 1.899705944480724 ], [ -75.151170799022282, 1.899505660710295 ], [ -75.15160063884997, 1.899924225553166 ], [ -75.151500421409224, 1.900376542339773 ], [ -75.151601316838892, 1.900602290080482 ], [ -75.150389268560843, 1.900823558217997 ], [ -75.150552628442838, 1.902158781196008 ], [ -75.149609266357018, 1.902298971440852 ], [ -75.149420105523987, 1.900301638480236 ] ] ], [ [ [ -75.159642106236177, 1.900252430769305 ], [ -75.159373497852073, 1.899951555075735 ], [ -75.159357237399661, 1.899711447113956 ], [ -75.159408474428119, 1.8990433475159 ], [ -75.159761162003377, 1.898585560018815 ], [ -75.160548863694913, 1.899146846542948 ], [ -75.160787694686277, 1.899178069070953 ], [ -75.161411779513017, 1.899711349489634 ], [ -75.161000259216138, 1.90027064693575 ], [ -75.161046150395805, 1.900773999651221 ], [ -75.162128106579516, 1.901964688700322 ], [ -75.162442149297945, 1.901999602452929 ], [ -75.161635193310417, 1.902695057720464 ], [ -75.160176551985657, 1.900991576470102 ], [ -75.160335237460473, 1.900777088529327 ], [ -75.160278678549588, 1.90052851728029 ], [ -75.159642106236177, 1.900252430769305 ] ] ], [ [ [ -75.154599649323615, 1.90409557973941 ], [ -75.154499125419704, 1.903062136629601 ], [ -75.154927032178136, 1.902939848004852 ], [ -75.154783843218524, 1.902114568818773 ], [ -75.15801860278286, 1.901700622068346 ], [ -75.158702878310095, 1.902374881275678 ], [ -75.158814455794683, 1.902779429153371 ], [ -75.156361479608748, 1.904029843220177 ], [ -75.154599649323615, 1.90409557973941 ] ], [ [ -75.15631094912159, 1.903951203872812 ], [ -75.15630638807292, 1.903588685915308 ], [ -75.155592382742668, 1.903595132811687 ], [ -75.155596574895924, 1.903957182717649 ], [ -75.15631094912159, 1.903951203872812 ] ], [ [ -75.156422835950252, 1.902904455812946 ], [ -75.156440570789329, 1.903796590342809 ], [ -75.157187963017932, 1.90351294931224 ], [ -75.15712786373571, 1.902823034322142 ], [ -75.156422835950252, 1.902904455812946 ] ] ], [ [ [ -75.163390782281638, 1.905866928740972 ], [ -75.162293474782246, 1.905679128115463 ], [ -75.161945786763951, 1.905269250196606 ], [ -75.161953599235446, 1.905023124707358 ], [ -75.162420619457251, 1.904323304412495 ], [ -75.16289372771368, 1.904305280605686 ], [ -75.163402271304648, 1.903758663941256 ], [ -75.163749823558803, 1.903750946654525 ], [ -75.163390782281638, 1.905866928740972 ] ] ], [ [ [ -75.147846612846919, 1.907952418089247 ], [ -75.146552215241158, 1.907346836717957 ], [ -75.147013102321992, 1.906774922605621 ], [ -75.147091489377118, 1.906065427487665 ], [ -75.148485544433015, 1.905873011140395 ], [ -75.14857323708101, 1.905954220483899 ], [ -75.148537288668095, 1.908092452926731 ], [ -75.147846612846919, 1.907952418089247 ] ] ], [ [ [ -75.161074482338492, 1.90886171894421 ], [ -75.160886665736911, 1.908923915124425 ], [ -75.160903682989968, 1.907658816260142 ], [ -75.162011666980092, 1.907624599445697 ], [ -75.162023430257562, 1.90743080935147 ], [ -75.162249269729401, 1.907366068312729 ], [ -75.162421019201034, 1.906295629715001 ], [ -75.163294562332609, 1.906463836631052 ], [ -75.163147410492371, 1.906554281604247 ], [ -75.163235639953925, 1.906816853159149 ], [ -75.163007602226514, 1.908655342589915 ], [ -75.163101345277227, 1.908748358967856 ], [ -75.162113604795366, 1.908674246247005 ], [ -75.162091448895495, 1.908446612312835 ], [ -75.161841312585977, 1.908394738878728 ], [ -75.161703966974684, 1.908430033740928 ], [ -75.161467623261871, 1.909005023376644 ], [ -75.161074482338492, 1.90886171894421 ] ], [ [ -75.161272599825594, 1.907720465479879 ], [ -75.160965895247017, 1.907716265801826 ], [ -75.16096554884669, 1.908005578467708 ], [ -75.161277152500091, 1.907996549140645 ], [ -75.161272599825594, 1.907720465479879 ] ] ] ] } },
{ "type": "Feature", "properties": { "Id": 0, "area_m2": 31993.171546000001, "Tipo": "Ocupación de franjas de protección hídrica", "CRS_ORIGINAL": "EPSG:21897", "FUENTE_PBOT": "PBOT 2015 — Cartografía de formulación", "CAPA_SIGOber": "PBOT2015_ZONAS_HOMOGENEAS_URBANAS" }, "geometry": { "type": "MultiPolygon", "coordinates": [ [ [ [ -75.151629521009824, 1.900637439178091 ], [ -75.151999763825273, 1.900585464467364 ], [ -75.15202200537756, 1.900743238562936 ], [ -75.151629521009824, 1.900637439178091 ] ] ], [ [ [ -75.15212150991951, 1.90373533784715 ], [ -75.152090309821887, 1.903720344571791 ], [ -75.152143037365335, 1.9037257276025 ], [ -75.15212150991951, 1.90373533784715 ] ] ], [ [ [ -75.152694499008021, 1.903832778185066 ], [ -75.152599914649898, 1.903787743878815 ], [ -75.152677917655652, 1.903777475029572 ], [ -75.152694499008021, 1.903832778185066 ] ] ], [ [ [ -75.152275293254988, 1.903780465045631 ], [ -75.152347901877121, 1.903881778681666 ], [ -75.152292480749892, 1.903889985804763 ], [ -75.152275293254988, 1.903780465045631 ] ] ], [ [ [ -75.151812586755156, 1.903902175319342 ], [ -75.151896689431396, 1.903830669739804 ], [ -75.151896759882476, 1.90389037802341 ], [ -75.151812586755156, 1.903902175319342 ] ] ], [ [ [ -75.162192379259622, 1.903904117489156 ], [ -75.16221430824875, 1.903842836220129 ], [ -75.162232245567751, 1.903859917573613 ], [ -75.162192379259622, 1.903904117489156 ] ] ], [ [ [ -75.162277581209054, 1.903916388025465 ], [ -75.162269541840473, 1.903895422093407 ], [ -75.162283811305628, 1.90390900747701 ], [ -75.162277581209054, 1.903916388025465 ] ] ], [ [ [ -75.152056088746974, 1.903926907178298 ], [ -75.151984053131685, 1.90381660805784 ], [ -75.152108286726644, 1.903844578970566 ], [ -75.152056088746974, 1.903926907178298 ] ] ], [ [ [ -75.151700280469214, 1.904098728187868 ], [ -75.151700647431696, 1.904006257525375 ], [ -75.151914143802074, 1.903947223256692 ], [ -75.151930728737611, 1.90406449256045 ], [ -75.151700280469214, 1.904098728187868 ] ] ], [ [ [ -75.151385299848457, 1.904145214311964 ], [ -75.151238400925678, 1.90409424775218 ], [ -75.151378002411107, 1.904095352967759 ], [ -75.151385299848457, 1.904145214311964 ] ] ], [ [ [ -75.151098934205947, 1.904186105674095 ], [ -75.150985142214964, 1.904133039849262 ], [ -75.151079707284296, 1.904109728948665 ], [ -75.151098934205947, 1.904186105674095 ] ] ], [ [ [ -75.152168009163859, 1.904225482271902 ], [ -75.152177988490948, 1.904178646101798 ], [ -75.15218979965141, 1.904218267094436 ], [ -75.152168009163859, 1.904225482271902 ] ] ], [ [ [ -75.161885327875197, 1.904270057775496 ], [ -75.161897561135987, 1.904219668521017 ], [ -75.16191331060179, 1.904233124546062 ], [ -75.161885327875197, 1.904270057775496 ] ] ], [ [ [ -75.15782353545589, 1.904278672460826 ], [ -75.15792988011583, 1.904247479769281 ], [ -75.157916425852747, 1.904302692879484 ], [ -75.15782353545589, 1.904278672460826 ] ] ], [ [ [ -75.150279933578346, 1.904431921018509 ], [ -75.150353934860277, 1.904383415044109 ], [ -75.150353172234887, 1.904430465911224 ], [ -75.150279933578346, 1.904431921018509 ] ] ], [ [ [ -75.158272425113296, 1.904472441959971 ], [ -75.158254067982625, 1.90440473715287 ], [ -75.158292433930455, 1.904419697590718 ], [ -75.158272425113296, 1.904472441959971 ] ] ], [ [ [ -75.158300804684728, 1.904483767657777 ], [ -75.158303690193478, 1.904451464905374 ], [ -75.158312302329335, 1.9044547876827 ], [ -75.158300804684728, 1.904483767657777 ] ] ], [ [ [ -75.161814422152744, 1.904494376154169 ], [ -75.161827984945461, 1.904436273180899 ], [ -75.161847113099441, 1.904452133086645 ], [ -75.161814422152744, 1.904494376154169 ] ] ], [ [ [ -75.158647432742413, 1.904608616329393 ], [ -75.15864790366966, 1.904607267855282 ], [ -75.158650100601562, 1.904609635440909 ], [ -75.158647432742413, 1.904608616329393 ] ] ], [ [ [ -75.149965167356413, 1.904619219768758 ], [ -75.150001849894167, 1.904623891647685 ], [ -75.149965157830735, 1.904624014781523 ], [ -75.149965167356413, 1.904619219768758 ] ] ], [ [ [ -75.15749060721582, 1.90464660954572 ], [ -75.157456191062764, 1.904313994168483 ], [ -75.157546935205545, 1.904329178311388 ], [ -75.15749060721582, 1.90464660954572 ] ] ], [ [ [ -75.15259869158524, 1.904653175256327 ], [ -75.152489801473877, 1.904429443011327 ], [ -75.152574457621682, 1.904425373603525 ], [ -75.15259869158524, 1.904653175256327 ] ] ], [ [ [ -75.15119409782001, 1.904677086890721 ], [ -75.151264846393616, 1.904570152288496 ], [ -75.151274828393454, 1.904671145654769 ], [ -75.15119409782001, 1.904677086890721 ] ] ], [ [ [ -75.152668539572588, 1.904677053558615 ], [ -75.152648447498464, 1.904573055780062 ], [ -75.152675670156583, 1.904545830628956 ], [ -75.152668539572588, 1.904677053558615 ] ] ], [ [ [ -75.151947000887759, 1.904595590851047 ], [ -75.151872658319306, 1.904652739493994 ], [ -75.151749509265173, 1.904645785256158 ], [ -75.151947000887759, 1.904595590851047 ] ] ], [ [ [ -75.161568814976278, 1.904673090131887 ], [ -75.161596523466798, 1.904663822072102 ], [ -75.161581497864191, 1.904683166439154 ], [ -75.161568814976278, 1.904673090131887 ] ] ], [ [ [ -75.156466777068133, 1.904671191351879 ], [ -75.156464520770186, 1.904457026559829 ], [ -75.156478374578867, 1.904544192828349 ], [ -75.156964584997169, 1.90451858033468 ], [ -75.156482721384563, 1.904454482073349 ], [ -75.1566496397338, 1.90440336939382 ], [ -75.157211739949801, 1.904337617900155 ], [ -75.157323380921042, 1.904510372295668 ], [ -75.157323671463772, 1.904649499298083 ], [ -75.156466777068133, 1.904671191351879 ] ] ], [ [ [ -75.149916353957991, 1.904737403912791 ], [ -75.150002995322268, 1.904678325942732 ], [ -75.150004361926207, 1.904735745784603 ], [ -75.149916353957991, 1.904737403912791 ] ] ], [ [ [ -75.15187489243354, 1.904726031167867 ], [ -75.151915349557456, 1.904725458880902 ], [ -75.151874870157059, 1.904738998398346 ], [ -75.15187489243354, 1.904726031167867 ] ] ], [ [ [ -75.151052243160791, 1.9047292227966 ], [ -75.150972229509946, 1.904716541436131 ], [ -75.151052185122765, 1.904717130886012 ], [ -75.151052243160791, 1.9047292227966 ] ] ], [ [ [ -75.161471509462373, 1.904708969043652 ], [ -75.161549437699435, 1.904701588773903 ], [ -75.161535682206889, 1.904757705343105 ], [ -75.161471509462373, 1.904708969043652 ] ] ], [ [ [ -75.161977685065239, 1.904777826801577 ], [ -75.1619751126822, 1.904749246627958 ], [ -75.161988837469295, 1.904759880144113 ], [ -75.161977685065239, 1.904777826801577 ] ] ], [ [ [ -75.150756704800514, 1.904795470408956 ], [ -75.150744345326842, 1.904762662033624 ], [ -75.150756800750131, 1.904762736274885 ], [ -75.150756704800514, 1.904795470408956 ] ] ], [ [ [ -75.149428102617492, 1.904790328279073 ], [ -75.149451597012018, 1.904767621160267 ], [ -75.149456622298658, 1.904805710333845 ], [ -75.149428102617492, 1.904790328279073 ] ] ], [ [ [ -75.15015464583982, 1.90482848097228 ], [ -75.150179450542737, 1.904704390674282 ], [ -75.150248442351312, 1.904706050583444 ], [ -75.150245324904617, 1.904794856507489 ], [ -75.15015464583982, 1.90482848097228 ] ] ], [ [ [ -75.161992512600861, 1.904856968333403 ], [ -75.161984311539811, 1.904792872935883 ], [ -75.162020753487155, 1.904819024031212 ], [ -75.161992512600861, 1.904856968333403 ] ] ], [ [ [ -75.153209072607993, 1.904882006462279 ], [ -75.153200291852926, 1.904849683182556 ], [ -75.15321277555168, 1.904850424690846 ], [ -75.153209072607993, 1.904882006462279 ] ] ], [ [ [ -75.150567285307659, 1.904902867722748 ], [ -75.150443806608294, 1.904797606496569 ], [ -75.150572768827558, 1.904804087789518 ], [ -75.150567285307659, 1.904902867722748 ] ] ], [ [ [ -75.15732833341788, 1.904901233054471 ], [ -75.157257588333408, 1.904841908952364 ], [ -75.15732760774317, 1.904845886281411 ], [ -75.15732833341788, 1.904901233054471 ] ] ], [ [ [ -75.153060626878911, 1.904917938891162 ], [ -75.153139063479756, 1.904805670814981 ], [ -75.153150651356697, 1.904923328478773 ], [ -75.153060626878911, 1.904917938891162 ] ] ], [ [ [ -75.161902338413284, 1.904989875339095 ], [ -75.161884989863921, 1.904920046929984 ], [ -75.161915614496522, 1.904974968130047 ], [ -75.161902338413284, 1.904989875339095 ] ] ], [ [ [ -75.149377730519404, 1.905001018291346 ], [ -75.149485738336281, 1.904924931084295 ], [ -75.1494885604247, 1.904991711247793 ], [ -75.149377730519404, 1.905001018291346 ] ] ], [ [ [ -75.15537204846018, 1.905013512693295 ], [ -75.155473282545316, 1.905025669185479 ], [ -75.155328840019848, 1.905027220423977 ], [ -75.15537204846018, 1.905013512693295 ] ] ], [ [ [ -75.157561728000957, 1.9050225486146 ], [ -75.157595416748492, 1.904882501674429 ], [ -75.157599941388327, 1.905028005072908 ], [ -75.157561728000957, 1.9050225486146 ] ] ], [ [ [ -75.157651307532632, 1.905026541248039 ], [ -75.157616188278595, 1.904988980821425 ], [ -75.157656185518292, 1.9049944759048 ], [ -75.157651307532632, 1.905026541248039 ] ] ], [ [ [ -75.156079165931772, 1.905100538555255 ], [ -75.156105126646835, 1.905070274258865 ], [ -75.156109330398621, 1.90509807401367 ], [ -75.156079165931772, 1.905100538555255 ] ] ], [ [ [ -75.159108197943254, 1.905118055183059 ], [ -75.159080025642865, 1.905060104109497 ], [ -75.159125576398466, 1.905077946964097 ], [ -75.159108197943254, 1.905118055183059 ] ] ], [ [ [ -75.150464279101726, 1.905122081263755 ], [ -75.150443664114306, 1.90509138049356 ], [ -75.150487099466602, 1.905092300061394 ], [ -75.150464279101726, 1.905122081263755 ] ] ], [ [ [ -75.161813015174175, 1.905139420029841 ], [ -75.161788750925609, 1.905096620040387 ], [ -75.161827597447896, 1.905122415122042 ], [ -75.161813015174175, 1.905139420029841 ] ] ], [ [ [ -75.156173309631541, 1.905153376147256 ], [ -75.156193121730695, 1.905139908726855 ], [ -75.156194616051664, 1.905150902884566 ], [ -75.156173309631541, 1.905153376147256 ] ] ], [ [ [ -75.149207247081918, 1.905171501554981 ], [ -75.148921242436899, 1.905166059084643 ], [ -75.149380422924096, 1.903129537664271 ], [ -75.149307486251544, 1.901558620567167 ], [ -75.148920425727511, 1.898492678292778 ], [ -75.149111384615239, 1.898501807435279 ], [ -75.149219572533141, 1.899847487719771 ], [ -75.149420105523987, 1.900301638480236 ], [ -75.149646364077157, 1.903050710279724 ], [ -75.149207247081918, 1.905171501554981 ] ] ], [ [ [ -75.15589898245031, 1.905183931800729 ], [ -75.155770889050473, 1.905116584739123 ], [ -75.155886861695066, 1.905094653072262 ], [ -75.15589898245031, 1.905183931800729 ] ] ], [ [ [ -75.159448733865446, 1.905200535665214 ], [ -75.159432132888753, 1.905168162418465 ], [ -75.159454393210098, 1.905185969783205 ], [ -75.159448733865446, 1.905200535665214 ] ] ], [ [ [ -75.156672546758699, 1.905247640933155 ], [ -75.156600460957804, 1.90512118772424 ], [ -75.156677350256075, 1.905121813249883 ], [ -75.156672546758699, 1.905247640933155 ] ] ], [ [ [ -75.159477439573948, 1.905273230320407 ], [ -75.159467943923786, 1.905208197138015 ], [ -75.159497803933746, 1.905221455932308 ], [ -75.159477439573948, 1.905273230320407 ] ] ], [ [ [ -75.158540621681539, 1.905274994497272 ], [ -75.158418302730624, 1.905166599414319 ], [ -75.158561110994768, 1.90521623504827 ], [ -75.158540621681539, 1.905274994497272 ] ] ], [ [ [ -75.159870282065313, 1.905321417278321 ], [ -75.159929688255687, 1.905326662760702 ], [ -75.159924501496306, 1.905339657733097 ], [ -75.159870282065313, 1.905321417278321 ] ] ], [ [ [ -75.153252316884291, 1.905351626397344 ], [ -75.153215279251526, 1.90533689645042 ], [ -75.153253948286547, 1.905338105661783 ], [ -75.153252316884291, 1.905351626397344 ] ] ], [ [ [ -75.158654107528534, 1.905273905267958 ], [ -75.158530825567297, 1.90533252993406 ], [ -75.158609081296831, 1.905206663596223 ], [ -75.158654107528534, 1.905273905267958 ] ] ], [ [ [ -75.158775546395532, 1.905381805389958 ], [ -75.158717395289756, 1.905320124978562 ], [ -75.158787999940728, 1.905355225452316 ], [ -75.158775546395532, 1.905381805389958 ] ] ], [ [ [ -75.158735028785571, 1.90541679007377 ], [ -75.158726927939412, 1.905407812078705 ], [ -75.158749689376648, 1.905418104291262 ], [ -75.158735028785571, 1.90541679007377 ] ] ], [ [ [ -75.159752052054671, 1.905435358794561 ], [ -75.159720547165477, 1.905367076679336 ], [ -75.159769919701318, 1.905384605974042 ], [ -75.159752052054671, 1.905435358794561 ] ] ], [ [ [ -75.153267893301404, 1.905454251768675 ], [ -75.153232414738369, 1.905433750175162 ], [ -75.153268042020088, 1.905439480572591 ], [ -75.153267893301404, 1.905454251768675 ] ] ], [ [ [ -75.148690914270588, 1.905478497978605 ], [ -75.148730616387112, 1.905363305375298 ], [ -75.148833948748901, 1.905399004657687 ], [ -75.148810817808823, 1.905464695723599 ], [ -75.148690914270588, 1.905478497978605 ] ] ], [ [ [ -75.149129403730484, 1.905521555681113 ], [ -75.149116399254623, 1.905518721242244 ], [ -75.149139805114558, 1.905523478549961 ], [ -75.149129403730484, 1.905521555681113 ] ] ], [ [ [ -75.158855627683423, 1.905520893071935 ], [ -75.1588390871364, 1.90550144536837 ], [ -75.158861166211381, 1.905508497356102 ], [ -75.158855627683423, 1.905520893071935 ] ] ], [ [ [ -75.15623117561212, 1.905482483516389 ], [ -75.156213623824129, 1.905517281465738 ], [ -75.156206294370165, 1.905487809154761 ], [ -75.15623117561212, 1.905482483516389 ] ] ], [ [ [ -75.153210330785413, 1.905537158553733 ], [ -75.153189110374257, 1.905520996958648 ], [ -75.153211052603652, 1.905522007220112 ], [ -75.153210330785413, 1.905537158553733 ] ] ], [ [ [ -75.159036891495035, 1.905473139871289 ], [ -75.158923323005041, 1.905533006046675 ], [ -75.158972887811672, 1.905419020618596 ], [ -75.159036891495035, 1.905473139871289 ] ] ], [ [ [ -75.15576738305937, 1.905560610284697 ], [ -75.155797402820056, 1.905549679769366 ], [ -75.155797650153417, 1.905554203344826 ], [ -75.15576738305937, 1.905560610284697 ] ] ], [ [ [ -75.160767145283444, 1.90559722989294 ], [ -75.160799581822744, 1.905574326082516 ], [ -75.160801571046193, 1.90559883682973 ], [ -75.160767145283444, 1.90559722989294 ] ] ], [ [ [ -75.155408602903975, 1.905606688925011 ], [ -75.155420863972537, 1.90558255588438 ], [ -75.155422061653709, 1.905606047251959 ], [ -75.155408602903975, 1.905606688925011 ] ] ], [ [ [ -75.153169178789213, 1.905618920843552 ], [ -75.153214097814597, 1.905579108535082 ], [ -75.153212487649625, 1.905616003871991 ], [ -75.153169178789213, 1.905618920843552 ] ] ], [ [ [ -75.156305394602725, 1.905619791241825 ], [ -75.156302013059928, 1.905409705133869 ], [ -75.156423072176011, 1.905408942974001 ], [ -75.156423588899855, 1.905617750579665 ], [ -75.156305394602725, 1.905619791241825 ] ] ], [ [ [ -75.155396911617117, 1.905650512463836 ], [ -75.155408869121246, 1.905614038128821 ], [ -75.155410173573372, 1.905649889002424 ], [ -75.155396911617117, 1.905650512463836 ] ] ], [ [ [ -75.155438119607709, 1.905653550988772 ], [ -75.155507530501865, 1.905578679403288 ], [ -75.155508351553863, 1.905602024533274 ], [ -75.155438119607709, 1.905653550988772 ] ] ], [ [ [ -75.159273247764403, 1.905651195551486 ], [ -75.15926288874563, 1.905589333064859 ], [ -75.159289834466264, 1.905597059126361 ], [ -75.159273247764403, 1.905651195551486 ] ] ], [ [ [ -75.154201474647252, 1.905655430511231 ], [ -75.154293532047276, 1.905632980030344 ], [ -75.154293799478509, 1.905645041049123 ], [ -75.154201474647252, 1.905655430511231 ] ] ], [ [ [ -75.156182971150471, 1.905663757180948 ], [ -75.156069590614393, 1.905568571914384 ], [ -75.156281175677236, 1.905662970974742 ], [ -75.156182971150471, 1.905663757180948 ] ] ], [ [ [ -75.159855133026014, 1.905664438531167 ], [ -75.159929140556059, 1.905648725008467 ], [ -75.159928860654119, 1.905660643496196 ], [ -75.159855133026014, 1.905664438531167 ] ] ], [ [ [ -75.15541092450546, 1.905670391358791 ], [ -75.15541106649178, 1.905670389458285 ], [ -75.15541092725762, 1.905670479064889 ], [ -75.15541092450546, 1.905670391358791 ] ] ], [ [ [ -75.15505825131271, 1.905671218665853 ], [ -75.155071873761258, 1.90563291585141 ], [ -75.155069843611258, 1.905670661392348 ], [ -75.15505825131271, 1.905671218665853 ] ] ], [ [ [ -75.16166313879782, 1.905662680537147 ], [ -75.161738008341075, 1.905659930844437 ], [ -75.161729263787208, 1.905688201026958 ], [ -75.16166313879782, 1.905662680537147 ] ] ], [ [ [ -75.159085391578031, 1.905669822344275 ], [ -75.159207326247639, 1.905529832842851 ], [ -75.159156874584653, 1.905691493890009 ], [ -75.159085391578031, 1.905669822344275 ] ] ], [ [ [ -75.159664329242474, 1.905706735735425 ], [ -75.159705954744354, 1.905684137903088 ], [ -75.159705165163686, 1.905709809658738 ], [ -75.159664329242474, 1.905706735735425 ] ] ], [ [ [ -75.159660757917166, 1.905754125558476 ], [ -75.159620047030387, 1.905712120166356 ], [ -75.15966379634304, 1.905713725575567 ], [ -75.159660757917166, 1.905754125558476 ] ] ], [ [ [ -75.154569312570246, 1.90573853994885 ], [ -75.15447900419035, 1.905731870292318 ], [ -75.154555708206601, 1.905653517324974 ], [ -75.154461294428231, 1.905583138228337 ], [ -75.154612001715392, 1.905586025334895 ], [ -75.154569312570246, 1.90573853994885 ] ] ], [ [ [ -75.154801413941541, 1.905779538954342 ], [ -75.154782143424441, 1.905558200262427 ], [ -75.155081521826133, 1.905728475913383 ], [ -75.155249843463096, 1.905529078199892 ], [ -75.155354015775913, 1.905623354465321 ], [ -75.155271728600511, 1.905736978673114 ], [ -75.154801413941541, 1.905779538954342 ] ] ], [ [ [ -75.154204824756789, 1.905781674366865 ], [ -75.154201775638299, 1.905666571931971 ], [ -75.154385229693133, 1.905657814279991 ], [ -75.154443908838701, 1.905589847846351 ], [ -75.154448449562352, 1.905779074228327 ], [ -75.154204824756789, 1.905781674366865 ] ] ], [ [ [ -75.160354076960658, 1.905797821685464 ], [ -75.160213517690835, 1.905716977119143 ], [ -75.160355523910539, 1.90570026172741 ], [ -75.160354076960658, 1.905797821685464 ] ] ], [ [ [ -75.159504231414587, 1.905804711871648 ], [ -75.159433623422686, 1.905746282092172 ], [ -75.159508345801598, 1.905750756270878 ], [ -75.159504231414587, 1.905804711871648 ] ] ], [ [ [ -75.15370364780587, 1.905808086271614 ], [ -75.153495598451755, 1.905752337503397 ], [ -75.153701386048624, 1.905769005271187 ], [ -75.15370364780587, 1.905808086271614 ] ] ], [ [ [ -75.153385171905725, 1.905813227669628 ], [ -75.153307566896217, 1.905678689655016 ], [ -75.153331901100657, 1.905677906230054 ], [ -75.153385171905725, 1.905813227669628 ] ] ], [ [ [ -75.153057533130806, 1.9057113296702 ], [ -75.153037190525666, 1.905332216707766 ], [ -75.153191516517964, 1.905336152298172 ], [ -75.153248314346783, 1.905433265175526 ], [ -75.153189912481537, 1.905427617334366 ], [ -75.153090462850145, 1.905623195339798 ], [ -75.153151683121237, 1.905710690938598 ], [ -75.153253186854172, 1.905639853973718 ], [ -75.153264151340267, 1.905815487874883 ], [ -75.153057533130806, 1.9057113296702 ] ] ], [ [ [ -75.161119407437283, 1.905811805464304 ], [ -75.161146616576715, 1.905769483678441 ], [ -75.16117071915383, 1.905816590504992 ], [ -75.161119407437283, 1.905811805464304 ] ] ], [ [ [ -75.16006873900325, 1.905832681972387 ], [ -75.159853745095944, 1.905820261720184 ], [ -75.159855025334764, 1.90567724031378 ], [ -75.160072573399987, 1.905713717956059 ], [ -75.16006873900325, 1.905832681972387 ] ] ], [ [ [ -75.161289662744053, 1.905842450006224 ], [ -75.161269877706246, 1.905800165195333 ], [ -75.161298457610627, 1.90580438365313 ], [ -75.161289662744053, 1.905842450006224 ] ] ], [ [ [ -75.163205389989642, 1.905902897871323 ], [ -75.163180883400756, 1.905885694249266 ], [ -75.1632079744262, 1.905890224689937 ], [ -75.163205389989642, 1.905902897871323 ] ] ], [ [ [ -75.161354411738799, 1.905909560224026 ], [ -75.161285342721001, 1.905849123129211 ], [ -75.161358622003689, 1.905888748150295 ], [ -75.161354411738799, 1.905909560224026 ] ] ], [ [ [ -75.15953276905276, 1.905919248646918 ], [ -75.159576643667009, 1.905906079288082 ], [ -75.159574516105735, 1.905938916824809 ], [ -75.15953276905276, 1.905919248646918 ] ] ], [ [ [ -75.160343977113186, 1.90593624280379 ], [ -75.160165003655862, 1.905887039644227 ], [ -75.160380668929449, 1.905894004355332 ], [ -75.160343977113186, 1.90593624280379 ] ] ], [ [ [ -75.160739915850215, 1.905927689598119 ], [ -75.160770714252905, 1.905896574879088 ], [ -75.16076732774026, 1.905946221457778 ], [ -75.160739915850215, 1.905927689598119 ] ] ], [ [ [ -75.15968123701326, 1.905963169498374 ], [ -75.159611538117147, 1.905908416537132 ], [ -75.159682671453282, 1.90591316882313 ], [ -75.15968123701326, 1.905963169498374 ] ] ], [ [ [ -75.153272483853328, 1.905970324945564 ], [ -75.153300790522906, 1.905949092149567 ], [ -75.153300795155729, 1.905983031496677 ], [ -75.153272483853328, 1.905970324945564 ] ] ], [ [ [ -75.153907636593772, 1.905985323939475 ], [ -75.153907964085917, 1.905949408695588 ], [ -75.153999270062485, 1.905950558462103 ], [ -75.153907636593772, 1.905985323939475 ] ] ], [ [ [ -75.161319083703674, 1.905987429718484 ], [ -75.16129866569463, 1.905964186029271 ], [ -75.161322018178282, 1.905969869990611 ], [ -75.161319083703674, 1.905987429718484 ] ] ], [ [ [ -75.153734679951711, 1.905950974912615 ], [ -75.153366273340907, 1.90600457700097 ], [ -75.153366028722829, 1.90594949658378 ], [ -75.153734679951711, 1.905950974912615 ] ] ], [ [ [ -75.162101694800825, 1.906102650744385 ], [ -75.162080061806151, 1.906022257727592 ], [ -75.162117419282296, 1.906031316062337 ], [ -75.162101694800825, 1.906102650744385 ] ] ], [ [ [ -75.162671845615805, 1.906147381947249 ], [ -75.162616629552176, 1.906129116039802 ], [ -75.162673215011523, 1.906137394135244 ], [ -75.162671845615805, 1.906147381947249 ] ] ], [ [ [ -75.162612754200822, 1.906297133884229 ], [ -75.162603810775622, 1.906242762787624 ], [ -75.162621722047533, 1.906247265774424 ], [ -75.162612754200822, 1.906297133884229 ] ] ], [ [ [ -75.163289449135718, 1.906420898495816 ], [ -75.163249838558229, 1.906393468274146 ], [ -75.163293207521562, 1.906400352560879 ], [ -75.163289449135718, 1.906420898495816 ] ] ] ] } },
{ "type": "Feature", "properties": { "Id": 0, "area_m2": 16432.2184628, "Tipo": "Inmuebles de interés arquitectónico y cultural", "CRS_ORIGINAL": "EPSG:21897", "FUENTE_PBOT": "PBOT 2015 — Cartografía de formulación", "CAPA_SIGOber": "PBOT2015_ZONAS_HOMOGENEAS_URBANAS" }, "geometry": { "type": "MultiPolygon", "coordinates": [ [ [ [ -75.149611882292348, 1.902359623930901 ], [ -75.150546702969947, 1.902276320076085 ], [ -75.150626532844996, 1.90283308152501 ], [ -75.149643732209469, 1.902998936205644 ], [ -75.149611882292348, 1.902359623930901 ] ] ], [ [ [ -75.155592382742668, 1.903595132811687 ], [ -75.15630638807292, 1.903588685915308 ], [ -75.15631094912159, 1.903951203872812 ], [ -75.155596574895924, 1.903957182717649 ], [ -75.155592382742668, 1.903595132811687 ] ] ], [ [ [ -75.149385187573301, 1.906022118602277 ], [ -75.149989523608212, 1.90600775223553 ], [ -75.149979548302838, 1.906733047942914 ], [ -75.149365579608002, 1.9067408434691 ], [ -75.149385187573301, 1.906022118602277 ] ] ], [ [ [ -75.149647302238705, 1.906891212888593 ], [ -75.149569159832794, 1.907187697499926 ], [ -75.149561182752933, 1.906890870641115 ], [ -75.149647302238705, 1.906891212888593 ] ] ] ] } },
{ "type": "Feature", "properties": { "Id": 0, "area_m2": 64898.065652700003, "Tipo": "Parques, polideportivos, otros  a fines", "CRS_ORIGINAL": "EPSG:21897", "FUENTE_PBOT": "PBOT 2015 — Cartografía de formulación", "CAPA_SIGOber": "PBOT2015_ZONAS_HOMOGENEAS_URBANAS" }, "geometry": { "type": "MultiPolygon", "coordinates": [ [ [ [ -75.153340752922517, 1.90097476097593 ], [ -75.153610532375765, 1.900945308537897 ], [ -75.153687198850932, 1.901503728778138 ], [ -75.153416545783486, 1.901540144223177 ], [ -75.153340752922517, 1.90097476097593 ] ] ], [ [ [ -75.152113653156036, 1.901441795981344 ], [ -75.152318940199066, 1.901429570644419 ], [ -75.152358158160027, 1.901728047153759 ], [ -75.152155244236894, 1.90175547158727 ], [ -75.152113653156036, 1.901441795981344 ] ] ], [ [ [ -75.150508489630539, 1.901584948802442 ], [ -75.15102437498507, 1.901507475731562 ], [ -75.151078487993942, 1.901887849398209 ], [ -75.150570825301841, 1.901979534083047 ], [ -75.150508489630539, 1.901584948802442 ] ] ], [ [ [ -75.14961980361818, 1.903055274650126 ], [ -75.150673284635573, 1.90287422078698 ], [ -75.150774285028973, 1.903602717972709 ], [ -75.149643801842544, 1.903660251112782 ], [ -75.14961980361818, 1.903055274650126 ] ] ], [ [ [ -75.156422835950252, 1.902904455812946 ], [ -75.15712786373571, 1.902823034322142 ], [ -75.157187963017932, 1.90351294931224 ], [ -75.15644057168798, 1.903796590342226 ], [ -75.156422835950252, 1.902904455812946 ] ] ], [ [ [ -75.154248325317482, 1.905539129320832 ], [ -75.153407973226976, 1.905593596789868 ], [ -75.153307630739363, 1.905042070228581 ], [ -75.153389323111739, 1.90466264803477 ], [ -75.1532079909678, 1.904393210875033 ], [ -75.152843035073587, 1.904335140148076 ], [ -75.152683336421958, 1.903376129012495 ], [ -75.154384779904433, 1.903114393217532 ], [ -75.154599841507206, 1.905305893318926 ], [ -75.154248325317482, 1.905539129320832 ] ] ], [ [ [ -75.159769316294302, 1.90592465093654 ], [ -75.160015792648792, 1.905934088513755 ], [ -75.160009384431632, 1.906191181224816 ], [ -75.159764151476509, 1.90618407027753 ], [ -75.159769316294302, 1.90592465093654 ] ] ], [ [ [ -75.160965895247017, 1.907716265801826 ], [ -75.161272599825594, 1.907720465479879 ], [ -75.161277152500091, 1.907996549140645 ], [ -75.16096554884669, 1.908005578467708 ], [ -75.160965895247017, 1.907716265801826 ] ] ] ] } },
{ "type": "Feature", "properties": { "Id": 0, "area_m2": 58951.749895399997, "Tipo": "Áreas sin construir", "CRS_ORIGINAL": "EPSG:21897", "FUENTE_PBOT": "PBOT 2015 — Cartografía de formulación", "CAPA_SIGOber": "PBOT2015_ZONAS_HOMOGENEAS_URBANAS" }, "geometry": { "type": "MultiPolygon", "coordinates": [ [ [ [ -75.149111429466927, 1.897943070658507 ], [ -75.149313531629815, 1.897940548426033 ], [ -75.149316100652982, 1.898241987278762 ], [ -75.149111619246284, 1.898242118675159 ], [ -75.149111429466927, 1.897943070658507 ] ] ], [ [ [ -75.149826255532545, 1.899705944443436 ], [ -75.14981981863896, 1.899445898090542 ], [ -75.149581393328788, 1.899445822661627 ], [ -75.14958702826209, 1.899020645601929 ], [ -75.150747566965521, 1.899009003230527 ], [ -75.150433278033361, 1.898370996024264 ], [ -75.15059489211869, 1.898371476095917 ], [ -75.150957130563157, 1.898902163848651 ], [ -75.151170799022282, 1.899505660710295 ], [ -75.149826255532545, 1.899705944443436 ] ] ], [ [ [ -75.160171955678919, 1.901519742748328 ], [ -75.159580807862199, 1.901342937380155 ], [ -75.159811772900838, 1.90099681102555 ], [ -75.160176551985657, 1.900991576470102 ], [ -75.160388644184806, 1.901227583079736 ], [ -75.160171955678919, 1.901519742748328 ] ] ], [ [ [ -75.158490786231411, 1.901324962500925 ], [ -75.159373497852073, 1.899951555075735 ], [ -75.159611835873918, 1.900253532755882 ], [ -75.159198058928453, 1.900572916559977 ], [ -75.159044129674186, 1.90140373920062 ], [ -75.158771849334855, 1.901496956749789 ], [ -75.158490786231411, 1.901324962500925 ] ] ], [ [ [ -75.158807241534404, 1.902670391383452 ], [ -75.158702878310095, 1.902374881275678 ], [ -75.159226659734841, 1.902388822909219 ], [ -75.159379482612621, 1.901939128237318 ], [ -75.159667538761255, 1.902169279675038 ], [ -75.158807241534404, 1.902670391383452 ] ] ], [ [ [ -75.149544401596486, 1.903633587743278 ], [ -75.14962788186287, 1.903258924785945 ], [ -75.149643801842544, 1.903660251112782 ], [ -75.149544401596486, 1.903633587743278 ] ] ], [ [ [ -75.150673283736921, 1.902874220787558 ], [ -75.152500078822115, 1.902565972456322 ], [ -75.152637273627022, 1.903313503660974 ], [ -75.150206181866352, 1.903695885861221 ], [ -75.150774285028973, 1.903602717972709 ], [ -75.150673283736921, 1.902874220787558 ] ] ], [ [ [ -75.157775658600571, 1.90372649527074 ], [ -75.158117141982885, 1.903175228058704 ], [ -75.158682052654115, 1.902910887846428 ], [ -75.159209817371902, 1.903542489235979 ], [ -75.158533661463451, 1.904004129649071 ], [ -75.157775658600571, 1.90372649527074 ] ] ], [ [ [ -75.148242659458276, 1.905955992572085 ], [ -75.148239651036818, 1.90549439848176 ], [ -75.148650700933473, 1.905499318849834 ], [ -75.148533010344039, 1.905841278933817 ], [ -75.148242659458276, 1.905955992572085 ] ] ], [ [ [ -75.148954135064287, 1.911061815186964 ], [ -75.148901664056353, 1.910611800318759 ], [ -75.149757373137135, 1.910612020107627 ], [ -75.149725313481639, 1.911020816125205 ], [ -75.148954135064287, 1.911061815186964 ] ] ] ] } },
{ "type": "Feature", "properties": { "Id": 0, "area_m2": 174873.96320200001, "Tipo": "Franjas de protección hidráulica", "CRS_ORIGINAL": "EPSG:21897", "FUENTE_PBOT": "PBOT 2015 — Cartografía de formulación", "CAPA_SIGOber": "PBOT2015_ZONAS_HOMOGENEAS_URBANAS" }, "geometry": { "type": "Polygon", "coordinates": [ [ [ -75.148901664056353, 1.910611800318759 ], [ -75.148954135064287, 1.911061815186964 ], [ -75.149725313481639, 1.911020816125205 ], [ -75.149757373137135, 1.910612020107627 ], [ -75.149884045218641, 1.910492390228286 ], [ -75.150661398219754, 1.910485440113093 ], [ -75.151289993095446, 1.910803979909484 ], [ -75.151422207110599, 1.91034712738328 ], [ -75.151805429064069, 1.910148621093314 ], [ -75.152362372354617, 1.910459456936199 ], [ -75.152862743647532, 1.910488809329652 ], [ -75.152933718964434, 1.910804544385695 ], [ -75.153246215021952, 1.910689713657149 ], [ -75.153275416320795, 1.91081070270044 ], [ -75.153805681553877, 1.910567002444363 ], [ -75.154253569773303, 1.910800274966922 ], [ -75.154534281819721, 1.910741381641349 ], [ -75.154798401651675, 1.910922854814955 ], [ -75.154872404577176, 1.910849013644384 ], [ -75.154742430541958, 1.910736725347425 ], [ -75.154886634871488, 1.91064193333665 ], [ -75.155686342603303, 1.910511978267133 ], [ -75.15632495476585, 1.91066845221042 ], [ -75.156299041459093, 1.910820020977704 ], [ -75.156834701858031, 1.91096423552996 ], [ -75.157305971550116, 1.910928171806866 ], [ -75.157552935789568, 1.910038131200653 ], [ -75.157944620706814, 1.910004464793221 ], [ -75.158086635152841, 1.909089330523945 ], [ -75.15830156074135, 1.908836933912209 ], [ -75.159234041211917, 1.909215004917084 ], [ -75.159580283888602, 1.909717695289483 ], [ -75.159539095839236, 1.910000856308879 ], [ -75.159741043577142, 1.910009042294776 ], [ -75.160069299263682, 1.909962917113921 ], [ -75.159954808871476, 1.909235532196417 ], [ -75.160025933038952, 1.908914907717409 ], [ -75.161074482338492, 1.90886171894421 ], [ -75.161467623261871, 1.909005023376644 ], [ -75.161703966974684, 1.908430033740928 ], [ -75.161841312585977, 1.908394738878728 ], [ -75.162091448895495, 1.908446612312835 ], [ -75.162113604795366, 1.908674246247005 ], [ -75.163101345277227, 1.908748358967856 ], [ -75.163228376794095, 1.908888019441669 ], [ -75.161327994514096, 1.909954392983657 ], [ -75.160167731410795, 1.91035669217172 ], [ -75.158086973905895, 1.910710258730194 ], [ -75.157349372750346, 1.911001614638977 ], [ -75.155281677626775, 1.911058648741853 ], [ -75.154590852055364, 1.91139040762449 ], [ -75.153725930420933, 1.911447250097907 ], [ -75.1526302318467, 1.911966584845865 ], [ -75.152144239158446, 1.912008167276157 ], [ -75.15080721102531, 1.911404005537255 ], [ -75.150011301242458, 1.911457363697911 ], [ -75.149352612352402, 1.911869601822712 ], [ -75.148683634953613, 1.912883314887429 ], [ -75.148260296884644, 1.91260986637065 ], [ -75.148301028217119, 1.911341309266877 ], [ -75.148587417460917, 1.910611719527469 ], [ -75.148901664056353, 1.910611800318759 ] ], [ [ -75.160564590104272, 1.910080098542549 ], [ -75.160826497191266, 1.909546741491216 ], [ -75.160534580422762, 1.910134488785084 ], [ -75.160564590104272, 1.910080098542549 ] ] ] } },
{ "type": "Feature", "properties": { "Id": 0, "area_m2": 97423.462200599999, "Tipo": "Áreas de alto riesgo no mitigable", "CRS_ORIGINAL": "EPSG:21897", "FUENTE_PBOT": "PBOT 2015 — Cartografía de formulación", "CAPA_SIGOber": "PBOT2015_ZONAS_HOMOGENEAS_URBANAS" }, "geometry": { "type": "Polygon", "coordinates": [ [ [ -75.146423954541675, 1.907596089046951 ], [ -75.146181799480459, 1.907476460998062 ], [ -75.146961965076414, 1.90616146996237 ], [ -75.14697945480826, 1.905338158156426 ], [ -75.147378192747709, 1.903984858344028 ], [ -75.147751952523791, 1.903267174725816 ], [ -75.148288551396121, 1.902621614300024 ], [ -75.148383778611532, 1.901837243195822 ], [ -75.148896446047829, 1.900403184063071 ], [ -75.149009392389075, 1.899715602363802 ], [ -75.149246073881258, 1.900985588519521 ], [ -75.149380422868234, 1.903129537862184 ], [ -75.14892124294343, 1.905166058791481 ], [ -75.148628923895515, 1.905184801668116 ], [ -75.148175053513782, 1.905489256604787 ], [ -75.147806936043523, 1.906159361824359 ], [ -75.147289949284044, 1.906416876402854 ], [ -75.146423954541675, 1.907596089046951 ] ] ] } },
{ "type": "Feature", "properties": { "Id": 0, "area_m2": 517200.88495500002, "Tipo": "Franjas de protección hidráulica", "CRS_ORIGINAL": "EPSG:21897", "FUENTE_PBOT": "PBOT 2015 — Cartografía de formulación", "CAPA_SIGOber": "PBOT2015_ZONAS_HOMOGENEAS_URBANAS" }, "geometry": { "type": "Polygon", "coordinates": [ [ [ -75.148270343203066, 1.910611638687765 ], [ -75.148799143511908, 1.909650161388068 ], [ -75.149088414207696, 1.909387425415453 ], [ -75.149022069125081, 1.908773781421045 ], [ -75.148506411425373, 1.908369301033822 ], [ -75.147688305195061, 1.908223399824267 ], [ -75.146181799480459, 1.907476460998062 ], [ -75.146955480482774, 1.906180362949954 ], [ -75.146976116859193, 1.905355789468927 ], [ -75.147267419571108, 1.90427179567882 ], [ -75.147751952379735, 1.903267174711408 ], [ -75.148280171926885, 1.902644014334132 ], [ -75.148383778359985, 1.901837243190359 ], [ -75.148949225167598, 1.900109521650593 ], [ -75.149222268775659, 1.901802004669804 ], [ -75.149174293547404, 1.902202523158857 ], [ -75.148653233306248, 1.902821588314797 ], [ -75.148432791359014, 1.903354642626127 ], [ -75.148028280374959, 1.903760745468629 ], [ -75.147950607605125, 1.904149273545032 ], [ -75.14803621758756, 1.904993234168046 ], [ -75.148441959825263, 1.90525919388183 ], [ -75.149269974159012, 1.905185490773752 ], [ -75.149259673292903, 1.904905418511184 ], [ -75.149601877692461, 1.904667666386749 ], [ -75.150069085650898, 1.904615558505697 ], [ -75.150363549821392, 1.904180749985556 ], [ -75.151930728737611, 1.90406449256045 ], [ -75.151914143802074, 1.903947223256692 ], [ -75.151700647431696, 1.904006257525375 ], [ -75.151874829684616, 1.903794125009528 ], [ -75.152447105630742, 1.903669674716354 ], [ -75.152755664307321, 1.903810465347127 ], [ -75.152843035073587, 1.904335140148076 ], [ -75.1532079909678, 1.904393210875033 ], [ -75.153389323112307, 1.904662648938958 ], [ -75.153307629841308, 1.905042071133349 ], [ -75.153407973226976, 1.905593596789868 ], [ -75.154248325318065, 1.905539130225018 ], [ -75.154599841507789, 1.905305894223162 ], [ -75.154580855024008, 1.905114031505987 ], [ -75.155086042328719, 1.905177450526463 ], [ -75.155326515568632, 1.905022184606106 ], [ -75.156098611336247, 1.904938369504736 ], [ -75.156204437844536, 1.904639736113412 ], [ -75.156428202059843, 1.904464674377452 ], [ -75.156475975767663, 1.904714763517156 ], [ -75.157323671463772, 1.904649499298083 ], [ -75.157249615119326, 1.90434539207067 ], [ -75.157656536639863, 1.904178973978442 ], [ -75.158171910067139, 1.904296493130493 ], [ -75.159477439573948, 1.905273230320407 ], [ -75.159924501496306, 1.905339657733097 ], [ -75.160676133129343, 1.905136338166268 ], [ -75.161213833752512, 1.905355952317714 ], [ -75.161724402370908, 1.904206995974547 ], [ -75.162148026786866, 1.903790497159569 ], [ -75.16264600648951, 1.903662965582879 ], [ -75.162993956669936, 1.903158356356317 ], [ -75.163450179064426, 1.903162966739874 ], [ -75.16397622291602, 1.902993203942123 ], [ -75.164221733491303, 1.903146346621831 ], [ -75.164130077019365, 1.903519265994762 ], [ -75.163702154206419, 1.903772680440118 ], [ -75.163402271304065, 1.903758663037072 ], [ -75.162909792687358, 1.904297944273156 ], [ -75.162420619457833, 1.904323305316679 ], [ -75.161953599235446, 1.905023124707358 ], [ -75.161945786764534, 1.90526925110079 ], [ -75.162293474782842, 1.905679129019699 ], [ -75.163390782281638, 1.905866928740972 ], [ -75.163282754426859, 1.906457495942513 ], [ -75.162117463506689, 1.906214204606439 ], [ -75.161639295023974, 1.905739700723158 ], [ -75.161292939098203, 1.905991503928831 ], [ -75.160843302386354, 1.905982116718714 ], [ -75.160631378732162, 1.905779114760169 ], [ -75.160380539930671, 1.905930937527059 ], [ -75.159610149272851, 1.905951068721742 ], [ -75.159181937810942, 1.905762406929075 ], [ -75.158560637499093, 1.905347879298201 ], [ -75.158609081296831, 1.905206663596223 ], [ -75.158530825567297, 1.90533252993406 ], [ -75.15797367816289, 1.905144064549283 ], [ -75.157816806996124, 1.904953250143416 ], [ -75.157599941388327, 1.905028005072908 ], [ -75.157595416748492, 1.904882501674429 ], [ -75.157561728000957, 1.9050225486146 ], [ -75.157130549885849, 1.904931309655465 ], [ -75.156680995911088, 1.905002400744542 ], [ -75.156611046348402, 1.905443711476501 ], [ -75.156423588899855, 1.905617750579665 ], [ -75.156423072176011, 1.905408942974001 ], [ -75.156302013059928, 1.905409705133869 ], [ -75.156280599845246, 1.905636663517952 ], [ -75.156411979260113, 1.905623488060649 ], [ -75.156333925963736, 1.905651964209315 ], [ -75.156077866042821, 1.905628402282004 ], [ -75.155933765779622, 1.905520434304926 ], [ -75.1554381894274, 1.90558158890218 ], [ -75.155438119607709, 1.905653550988772 ], [ -75.155357851167551, 1.905703197782497 ], [ -75.155262575045313, 1.905528193768868 ], [ -75.155081521826133, 1.905728475913383 ], [ -75.154782143424441, 1.905558200262427 ], [ -75.154843259733767, 1.90577797105889 ], [ -75.154734778278709, 1.905784606821735 ], [ -75.15461374524503, 1.905758882887223 ], [ -75.154612001715392, 1.905586025334895 ], [ -75.154470732284565, 1.905582008185094 ], [ -75.154549706832299, 1.905750131906448 ], [ -75.154357017186413, 1.905890679842467 ], [ -75.153365099571545, 1.906004382452705 ], [ -75.153127148145487, 1.905817708687055 ], [ -75.153264151340267, 1.905815487874883 ], [ -75.153253186854172, 1.905639853973718 ], [ -75.153151683121237, 1.905710690938598 ], [ -75.153090462850145, 1.905623195339798 ], [ -75.153093270611066, 1.905545044851519 ], [ -75.153247966107045, 1.905421301858873 ], [ -75.152987059206055, 1.905318469961576 ], [ -75.152992561611455, 1.904703892381721 ], [ -75.152668539572588, 1.904677053558615 ], [ -75.152675670156583, 1.904545830628956 ], [ -75.15259869158524, 1.904653175256327 ], [ -75.152574457621682, 1.904425373603525 ], [ -75.152515730777154, 1.904591874931602 ], [ -75.152149740074378, 1.904489621626029 ], [ -75.151848445878557, 1.904745724682843 ], [ -75.150649709834454, 1.904777074690558 ], [ -75.150396419579153, 1.905178189477209 ], [ -75.149845247469912, 1.905226270120035 ], [ -75.149377459098446, 1.905505955454169 ], [ -75.148876923411635, 1.905482223647827 ], [ -75.148730616387112, 1.905363305375298 ], [ -75.148650700933473, 1.905499318849834 ], [ -75.148239651036818, 1.90549439848176 ], [ -75.148242659458276, 1.905955992572085 ], [ -75.147091489377118, 1.906065427487665 ], [ -75.147013102321992, 1.906774922605621 ], [ -75.146552215241158, 1.907346836717957 ], [ -75.14776383803347, 1.907959078515729 ], [ -75.148625496586675, 1.908125936476234 ], [ -75.149201793060044, 1.908568565946798 ], [ -75.149357618353292, 1.908963721093094 ], [ -75.149330284827869, 1.90950724465952 ], [ -75.149021232240528, 1.909804154374647 ], [ -75.148587417460917, 1.910611719527469 ], [ -75.148270343203066, 1.910611638687765 ] ], [ [ -75.149377730519404, 1.905001018291346 ], [ -75.149485738336281, 1.904924931084295 ], [ -75.149375436660023, 1.904933947534297 ], [ -75.149377730519404, 1.905001018291346 ] ], [ [ -75.150572768827558, 1.904804087789518 ], [ -75.15043751631174, 1.904896738690533 ], [ -75.150567285307659, 1.904902867722748 ], [ -75.150572768827558, 1.904804087789518 ] ], [ [ -75.150202083292371, 1.904830005595284 ], [ -75.150258612386409, 1.904763759510484 ], [ -75.150248442351312, 1.904706050583444 ], [ -75.150179450542737, 1.904704390674282 ], [ -75.150202083292371, 1.904830005595284 ] ], [ [ -75.149916353957991, 1.904737403912791 ], [ -75.150002995322268, 1.904678325942732 ], [ -75.149916385352924, 1.904679492183279 ], [ -75.149916353957991, 1.904737403912791 ] ], [ [ -75.151192192109207, 1.904571966030111 ], [ -75.151274828393454, 1.904671145654769 ], [ -75.151264846393616, 1.904570152288496 ], [ -75.151192192109207, 1.904571966030111 ] ], [ [ -75.151785895937635, 1.904602287525377 ], [ -75.151909620676193, 1.904683305794648 ], [ -75.151947000887759, 1.904595590851047 ], [ -75.151785895937635, 1.904602287525377 ] ], [ [ -75.150279933578346, 1.904431921018509 ], [ -75.150353934860277, 1.904383415044109 ], [ -75.150279673311218, 1.904384519074002 ], [ -75.150279933578346, 1.904431921018509 ] ], [ [ -75.153067085211589, 1.904813406749264 ], [ -75.153150651356697, 1.904923328478773 ], [ -75.153139063479756, 1.904805670814981 ], [ -75.153067085211589, 1.904813406749264 ] ], [ [ -75.153200291852926, 1.904849683182556 ], [ -75.153209072607993, 1.904882006462279 ], [ -75.15321277555168, 1.904850424690846 ], [ -75.153200291852926, 1.904849683182556 ] ], [ [ -75.153215279251526, 1.90533689645042 ], [ -75.153252316884291, 1.905351626397344 ], [ -75.153253948286547, 1.905338105661783 ], [ -75.153215279251526, 1.90533689645042 ] ], [ [ -75.153232414738369, 1.905433750175162 ], [ -75.153267893301404, 1.905454251768675 ], [ -75.153268042020088, 1.905439480572591 ], [ -75.153232414738369, 1.905433750175162 ] ], [ [ -75.153189110374257, 1.905520996958648 ], [ -75.153210330785413, 1.905537158553733 ], [ -75.153211052603652, 1.905522007220112 ], [ -75.153189110374257, 1.905520996958648 ] ], [ [ -75.153214097814597, 1.905579108535082 ], [ -75.153169178789213, 1.905618920843552 ], [ -75.153212487649625, 1.905616003871991 ], [ -75.153214097814597, 1.905579108535082 ] ], [ [ -75.154245974123171, 1.9056383357103 ], [ -75.154246270963867, 1.905651416653575 ], [ -75.154293532047276, 1.905632980030344 ], [ -75.154245974123171, 1.9056383357103 ] ], [ [ -75.154383790267161, 1.905621656955433 ], [ -75.154201775638299, 1.905666571931971 ], [ -75.154204824756789, 1.905781674366865 ], [ -75.154448449562352, 1.905779074228327 ], [ -75.154383790267161, 1.905621656955433 ] ], [ [ -75.15370364780587, 1.905808086271614 ], [ -75.153495598451755, 1.905752337503397 ], [ -75.153498278123337, 1.905811156134781 ], [ -75.15370364780587, 1.905808086271614 ] ], [ [ -75.153314715646886, 1.905814902667373 ], [ -75.153369289779562, 1.905706161046621 ], [ -75.153307566896217, 1.905678689655016 ], [ -75.153314715646886, 1.905814902667373 ] ], [ [ -75.155071873761258, 1.90563291585141 ], [ -75.15505825131271, 1.905671218665853 ], [ -75.155069843611258, 1.905670661392348 ], [ -75.155071873761258, 1.90563291585141 ] ], [ [ -75.155420863972537, 1.90558255588438 ], [ -75.155408602903975, 1.905606688925011 ], [ -75.155422061653709, 1.905606047251959 ], [ -75.155420863972537, 1.90558255588438 ] ], [ [ -75.155408869121246, 1.905614038128821 ], [ -75.155396911617117, 1.905650512463836 ], [ -75.155410173573372, 1.905649889002424 ], [ -75.155408869121246, 1.905614038128821 ] ], [ [ -75.156206294370165, 1.905487809154761 ], [ -75.156242586101399, 1.905519342337573 ], [ -75.15623117561212, 1.905482483516389 ], [ -75.156206294370165, 1.905487809154761 ] ], [ [ -75.155809747020896, 1.90519532480137 ], [ -75.155886861695066, 1.905094653072262 ], [ -75.155770889050473, 1.905116584739123 ], [ -75.155809747020896, 1.90519532480137 ] ], [ [ -75.156105126646835, 1.905070274258865 ], [ -75.156079165931772, 1.905100538555255 ], [ -75.156109330398621, 1.90509807401367 ], [ -75.156105126646835, 1.905070274258865 ] ], [ [ -75.156193121730695, 1.905139908726855 ], [ -75.156173309631541, 1.905153376147256 ], [ -75.156194616051664, 1.905150902884566 ], [ -75.156193121730695, 1.905139908726855 ] ], [ [ -75.15725863759549, 1.904897371254729 ], [ -75.15732760774317, 1.904845886281411 ], [ -75.157257588333408, 1.904841908952364 ], [ -75.15725863759549, 1.904897371254729 ] ], [ [ -75.159080025642865, 1.905060104109497 ], [ -75.159108197943254, 1.905118055183059 ], [ -75.159125576398466, 1.905077946964097 ], [ -75.159080025642865, 1.905060104109497 ] ], [ [ -75.158418302730624, 1.905166599414319 ], [ -75.158540621681539, 1.905274994497272 ], [ -75.158561110994768, 1.90521623504827 ], [ -75.158418302730624, 1.905166599414319 ] ], [ [ -75.158717395289756, 1.905320124978562 ], [ -75.158775546395532, 1.905381805389958 ], [ -75.158787999940728, 1.905355225452316 ], [ -75.158717395289756, 1.905320124978562 ] ], [ [ -75.159769919701318, 1.905384605974042 ], [ -75.159704074460961, 1.905415397188648 ], [ -75.159752052054671, 1.905435358794561 ], [ -75.159769919701318, 1.905384605974042 ] ], [ [ -75.159036891495035, 1.905473139871289 ], [ -75.158923323005041, 1.905533006046675 ], [ -75.158996401477467, 1.905558032969598 ], [ -75.159036891495035, 1.905473139871289 ] ], [ [ -75.159207326247639, 1.905529832842851 ], [ -75.159085391578031, 1.905669822344275 ], [ -75.159156874584653, 1.905691493890009 ], [ -75.159207326247639, 1.905529832842851 ] ], [ [ -75.160799581822744, 1.905574326082516 ], [ -75.160767145283444, 1.90559722989294 ], [ -75.160801571046193, 1.90559883682973 ], [ -75.160799581822744, 1.905574326082516 ] ], [ [ -75.159273247764403, 1.905651195551486 ], [ -75.15926288874563, 1.905589333064859 ], [ -75.159245260050653, 1.905642766697949 ], [ -75.159273247764403, 1.905651195551486 ] ], [ [ -75.161738008341075, 1.905659930844437 ], [ -75.16166313879782, 1.905662680537147 ], [ -75.161729263787208, 1.905688201026958 ], [ -75.161738008341075, 1.905659930844437 ] ], [ [ -75.160072573399987, 1.905713717956059 ], [ -75.159855025334764, 1.90567724031378 ], [ -75.159853745095944, 1.905820261720184 ], [ -75.16006873900325, 1.905832681972387 ], [ -75.160072573399987, 1.905713717956059 ] ], [ [ -75.160354076960658, 1.905797821685464 ], [ -75.160213517690835, 1.905716977119143 ], [ -75.160214481873396, 1.905757361829134 ], [ -75.160354076960658, 1.905797821685464 ] ], [ [ -75.161146616576715, 1.905769483678441 ], [ -75.161119407437283, 1.905811805464304 ], [ -75.16117071915383, 1.905816590504992 ], [ -75.161146616576715, 1.905769483678441 ] ], [ [ -75.161298457610627, 1.90580438365313 ], [ -75.161263726746895, 1.905836943143574 ], [ -75.161289662744053, 1.905842450006224 ], [ -75.161298457610627, 1.90580438365313 ] ], [ [ -75.15942942537086, 1.905798704219273 ], [ -75.159508345801598, 1.905750756270878 ], [ -75.159433623422686, 1.905746282092172 ], [ -75.15942942537086, 1.905798704219273 ] ], [ [ -75.159620047030387, 1.905712120166356 ], [ -75.159660757917166, 1.905754125558476 ], [ -75.15966379634304, 1.905713725575567 ], [ -75.159620047030387, 1.905712120166356 ] ], [ [ -75.159664329242474, 1.905706735735425 ], [ -75.159705954744354, 1.905684137903088 ], [ -75.159666023091873, 1.905684203689473 ], [ -75.159664329242474, 1.905706735735425 ] ], [ [ -75.159855133026014, 1.905664438531167 ], [ -75.159929140556059, 1.905648725008467 ], [ -75.159855258468824, 1.90565129223544 ], [ -75.159855133026014, 1.905664438531167 ] ], [ [ -75.161285342721001, 1.905849123129211 ], [ -75.161354411738799, 1.905909560224026 ], [ -75.161358622003689, 1.905888748150295 ], [ -75.161285342721001, 1.905849123129211 ] ], [ [ -75.163180883400756, 1.905885694249266 ], [ -75.163205389989642, 1.905902897871323 ], [ -75.1632079744262, 1.905890224689937 ], [ -75.163180883400756, 1.905885694249266 ] ], [ [ -75.162080061806151, 1.906022257727592 ], [ -75.162101694800825, 1.906102650744385 ], [ -75.162117419282296, 1.906031316062337 ], [ -75.162080061806151, 1.906022257727592 ] ], [ [ -75.162616629552176, 1.906129116039802 ], [ -75.162671845615805, 1.906147381947249 ], [ -75.162673215011523, 1.906137394135244 ], [ -75.162616629552176, 1.906129116039802 ] ], [ [ -75.162603810775622, 1.906242762787624 ], [ -75.162612754200822, 1.906297133884229 ], [ -75.162621722047533, 1.906247265774424 ], [ -75.162603810775622, 1.906242762787624 ] ], [ [ -75.161813015174175, 1.905139420029841 ], [ -75.161788750925609, 1.905096620040387 ], [ -75.161774367666624, 1.905114265898028 ], [ -75.161813015174175, 1.905139420029841 ] ], [ [ -75.161902338413284, 1.904989875339095 ], [ -75.161884989863921, 1.904920046929984 ], [ -75.161857939515258, 1.904956327627071 ], [ -75.161902338413284, 1.904989875339095 ] ], [ [ -75.161992512600861, 1.904856968333403 ], [ -75.161984311539811, 1.904792872935883 ], [ -75.161953733962761, 1.904829124285524 ], [ -75.161992512600861, 1.904856968333403 ] ], [ [ -75.161977685065239, 1.904777826801577 ], [ -75.1619751126822, 1.904749246627958 ], [ -75.161962560172029, 1.904767186060591 ], [ -75.161977685065239, 1.904777826801577 ] ], [ [ -75.161581497864191, 1.904683166439154 ], [ -75.161583741721415, 1.90465373678733 ], [ -75.161568814976278, 1.904673090131887 ], [ -75.161581497864191, 1.904683166439154 ] ], [ [ -75.161814422152744, 1.904494376154169 ], [ -75.161827984945461, 1.904436273180899 ], [ -75.161794511939377, 1.904478157789473 ], [ -75.161814422152744, 1.904494376154169 ] ], [ [ -75.161885327875197, 1.904270057775496 ], [ -75.161897561135987, 1.904219668521017 ], [ -75.161869925314591, 1.904255246124023 ], [ -75.161885327875197, 1.904270057775496 ] ], [ [ -75.162277581209054, 1.903916388025465 ], [ -75.162269541840473, 1.903895422093407 ], [ -75.162262674745733, 1.903903030012121 ], [ -75.162277581209054, 1.903916388025465 ] ], [ [ -75.16217493653528, 1.903887558442064 ], [ -75.162232245567751, 1.903859917573613 ], [ -75.16221430824875, 1.903842836220129 ], [ -75.16217493653528, 1.903887558442064 ] ], [ [ -75.15744123100967, 1.904648555816148 ], [ -75.157606910959373, 1.90437475555376 ], [ -75.157456191062764, 1.904313994168483 ], [ -75.15744123100967, 1.904648555816148 ] ], [ [ -75.158292433930455, 1.904419697590718 ], [ -75.158233258928149, 1.904456805697755 ], [ -75.158272425113296, 1.904472441959971 ], [ -75.158292433930455, 1.904419697590718 ] ], [ [ -75.158312302329335, 1.9044547876827 ], [ -75.158293126411024, 1.904480695642202 ], [ -75.158300804684728, 1.904483767657777 ], [ -75.158312302329335, 1.9044547876827 ] ], [ [ -75.152168009163859, 1.904225482271902 ], [ -75.152177988490948, 1.904178646101798 ], [ -75.152155094456276, 1.904185863800441 ], [ -75.152168009163859, 1.904225482271902 ] ], [ [ -75.152001377916804, 1.903935689813788 ], [ -75.152108286726644, 1.903844578970566 ], [ -75.151984053131685, 1.90381660805784 ], [ -75.152001377916804, 1.903935689813788 ] ], [ [ -75.152332727357219, 1.903765202915402 ], [ -75.152292480749892, 1.903889985804763 ], [ -75.152347901877121, 1.903881778681666 ], [ -75.152332727357219, 1.903765202915402 ] ], [ [ -75.152677917655652, 1.903777475029572 ], [ -75.152606560822576, 1.903846417103551 ], [ -75.152694499008021, 1.903832778185066 ], [ -75.152677917655652, 1.903777475029572 ] ] ] } }
]
}
