{
"type": "FeatureCollection",
"name": "PBOT2015_PERIMETRO_EXPANSION",
"crs": { "type": "name", "properties": { "name": "urn:ogc:def:crs:OGC:1.3:CRS84" } },
"features": [
{ "type": "Feature", "properties": { "Id": 0, "area_m2": 2058777.2602200001, "Tipo": "Perímetro urbano", "CRS_ORIGINAL": "EPSG:21897", "FUENTE_PBOT": "PBOT 2015 — Cartografía de formulación", "CAPA_SIGOber": "PBOT2015_PERIMETRO_EXPANSION" }, "geometry": { "type": "Polygon", "coordinates": [ [ [ -75.149595671728335, 1.898368508142297 ], [ -75.149581393502501, 1.899445822791688 ], [ -75.149819818632935, 1.899445898255464 ], [ -75.1498262554544, 1.89970594440613 ], [ -75.151321540710683, 1.899483206066588 ], [ -75.151363638651361, 1.899682235515959 ], [ -75.151504791790074, 1.899660972818626 ], [ -75.151686293234945, 1.899895684794817 ], [ -75.15183036693648, 1.900608872157222 ], [ -75.154168934858447, 1.900265897219591 ], [ -75.154342743959191, 1.901485289341728 ], [ -75.155008789201403, 1.901398759108077 ], [ -75.15510114254208, 1.902121029242051 ], [ -75.157385287863363, 1.901757839968706 ], [ -75.158395383238954, 1.901473399838015 ], [ -75.159373498228106, 1.89995155537166 ], [ -75.159408474762557, 1.899043347466487 ], [ -75.15976116245777, 1.898585560359285 ], [ -75.160548864162493, 1.899146846598023 ], [ -75.16078769440395, 1.899178069328348 ], [ -75.161411779329114, 1.899711349975984 ], [ -75.161000258953564, 1.900270646935365 ], [ -75.161046150300777, 1.900774000116462 ], [ -75.162128106322982, 1.901964688415926 ], [ -75.162434601248663, 1.901993826341788 ], [ -75.163899768129269, 1.903115010054004 ], [ -75.163288934772353, 1.906508747334586 ], [ -75.163147410823427, 1.906554281631011 ], [ -75.163235639683791, 1.906816853000993 ], [ -75.163007601938617, 1.908655343078272 ], [ -75.163361276298417, 1.909034131547771 ], [ -75.161785546567941, 1.909889767288549 ], [ -75.160826496936309, 1.909546741327794 ], [ -75.160534580061309, 1.910134489157481 ], [ -75.160199564363822, 1.910224882198647 ], [ -75.160044880570283, 1.910585985592728 ], [ -75.157221556668972, 1.911229471471393 ], [ -75.155604731607866, 1.911209641513824 ], [ -75.154207688392788, 1.911363883096636 ], [ -75.153625835063011, 1.911629614416995 ], [ -75.153546798557215, 1.911553306679031 ], [ -75.15273138450361, 1.912189914962991 ], [ -75.150527135827787, 1.911598599324137 ], [ -75.150225465720808, 1.911626892657417 ], [ -75.14935809577652, 1.912122406590024 ], [ -75.148792063970163, 1.913104014935154 ], [ -75.148372865069717, 1.913108321788263 ], [ -75.148084245946222, 1.912964775326838 ], [ -75.147659165945001, 1.913105223365031 ], [ -75.147188514357282, 1.912287997995298 ], [ -75.146413778073523, 1.911342011133863 ], [ -75.145567159968266, 1.91092374394329 ], [ -75.145694243934713, 1.909329699700067 ], [ -75.146106768719932, 1.907740715088652 ], [ -75.146802890931241, 1.907125181912982 ], [ -75.147013102016857, 1.906774922377438 ], [ -75.147091489078008, 1.906065427268403 ], [ -75.14835873665875, 1.905957785607696 ], [ -75.148533010694791, 1.905841279229929 ], [ -75.148773253012621, 1.905196785416072 ], [ -75.148505338191825, 1.905062214520381 ], [ -75.148420678688396, 1.904836435389022 ], [ -75.149101723592167, 1.904186479836344 ], [ -75.149382974489029, 1.903149783121072 ], [ -75.149340673478136, 1.90169301221891 ], [ -75.148920425863878, 1.898492678621079 ], [ -75.149383519847063, 1.898513666386466 ], [ -75.149595671728335, 1.898368508142297 ] ] ] } },
{ "type": "Feature", "properties": { "Id": 0, "area_m2": 103294.36204000001, "Tipo": "Expansión- Residencial Zona 1", "CRS_ORIGINAL": "EPSG:21897", "FUENTE_PBOT": "PBOT 2015 — Cartografía de formulación", "CAPA_SIGOber": "PBOT2015_PERIMETRO_EXPANSION" }, "geometry": { "type": "Polygon", "coordinates": [ [ [ -75.154342743959177, 1.90148528934171 ], [ -75.154134800854152, 1.899964261785143 ], [ -75.15673369186068, 1.899761174286402 ], [ -75.159214752329348, 1.9001985477838 ], [ -75.158336821812568, 1.901516067676146 ], [ -75.15513139205737, 1.902126790027111 ], [ -75.155008789201375, 1.901398759108067 ], [ -75.154342743959177, 1.90148528934171 ] ] ] } },
{ "type": "Feature", "properties": { "Id": 0, "area_m2": 8482.8770455400008, "Tipo": "Expansión urbana", "CRS_ORIGINAL": "EPSG:21897", "FUENTE_PBOT": "PBOT 2015 — Cartografía de formulación", "CAPA_SIGOber": "PBOT2015_PERIMETRO_EXPANSION" }, "geometry": { "type": "Polygon", "coordinates": [ [ [ -75.216261506676773, 1.824184178930906 ], [ -75.21518991347304, 1.824322909303485 ], [ -75.215174048709173, 1.823609422425311 ], [ -75.216210184571423, 1.823594553108089 ], [ -75.216261506676773, 1.824184178930906 ] ] ] } },
{ "type": "Feature", "properties": { "Id": 0, "area_m2": 9112.8061695699998, "Tipo": "Expansión urbana", "CRS_ORIGINAL": "EPSG:21897", "FUENTE_PBOT": "PBOT 2015 — Cartografía de formulación", "CAPA_SIGOber": "PBOT2015_PERIMETRO_EXPANSION" }, "geometry": { "type": "Polygon", "coordinates": [ [ [ -74.995554923473762, 1.607991098336865 ], [ -74.995120604559887, 1.607612823391557 ], [ -74.995945230605955, 1.606657196048613 ], [ -74.996396976454037, 1.607044845897302 ], [ -74.995554923473762, 1.607991098336865 ] ] ] } },
{ "type": "Feature", "properties": { "Id": 0, "area_m2": 93547.372864300007, "Tipo": "Expansión - - Residencial Zona 2", "CRS_ORIGINAL": "EPSG:21897", "FUENTE_PBOT": "PBOT 2015 — Cartografía de formulación", "CAPA_SIGOber": "PBOT2015_PERIMETRO_EXPANSION" }, "geometry": { "type": "Polygon", "coordinates": [ [ [ -75.163070661594489, 1.907605820006975 ], [ -75.163235639683791, 1.906816853000993 ], [ -75.163147410823427, 1.906554281631011 ], [ -75.163288934772353, 1.906508747334586 ], [ -75.16350581083725, 1.905176927133195 ], [ -75.166172429683911, 1.905179901736649 ], [ -75.165953171836875, 1.908065245362973 ], [ -75.16531121609512, 1.908097963133306 ], [ -75.163070661594489, 1.907605820006975 ] ] ] } },
{ "type": "Feature", "properties": { "Id": 0, "area_m2": 7939.9366600800004, "Tipo": "Expansión- Industrial", "CRS_ORIGINAL": "EPSG:21897", "FUENTE_PBOT": "PBOT 2015 — Cartografía de formulación", "CAPA_SIGOber": "PBOT2015_PERIMETRO_EXPANSION" }, "geometry": { "type": "Polygon", "coordinates": [ [ [ -75.149595671728335, 1.898368508142297 ], [ -75.150433278403654, 1.898370996099124 ], [ -75.150747566811376, 1.899009003120041 ], [ -75.149587028554436, 1.899020646000462 ], [ -75.149595671728335, 1.898368508142297 ] ] ] } },
{ "type": "Feature", "properties": { "Id": 0, "area_m2": 6540.2015870300002, "Tipo": "Expansión urbana", "CRS_ORIGINAL": "EPSG:21897", "FUENTE_PBOT": "PBOT 2015 — Cartografía de formulación", "CAPA_SIGOber": "PBOT2015_PERIMETRO_EXPANSION" }, "geometry": { "type": "Polygon", "coordinates": [ [ [ -75.032416235020875, 1.940563895779209 ], [ -75.031749593341203, 1.940278365848468 ], [ -75.032023868112063, 1.939605058946975 ], [ -75.032699168962381, 1.939889733723906 ], [ -75.032416235020875, 1.940563895779209 ] ] ] } }
]
}
